<?xml version="1.0" encoding="UTF-8" standalone="yes"?>
<gpx version="1.1" creator="outdooractive - http://www.outdooractive.com" xmlns="http://www.topografix.com/GPX/1/1" xmlns:oa="http://www.outdooractive.com/GPX/Extensions/1" xmlns:xsi="http://www.w3.org/2001/XMLSchema-instance" xsi:schemaLocation="http://www.topografix.com/GPX/1/1 http://www.topografix.com/GPX/1/1/gpx.xsd http://www.outdooractive.com/GPX/Extensions/1 https://www.outdooractive.com/schema/gpx_extensions.xsd">
  <metadata>
    <name>5day hard</name>
    <author>
      <name>hwang leo - Community</name>
    </author>
    <link href="https://www.outdooractive.com/r/351855415"/>
    <time>2026-09-04T04:18:44.589Z</time>
    <extensions>
      <oa:oaCategory>hikingTourTrail</oa:oaCategory>
    </extensions>
  </metadata>
  <trk>
    <name>5day hard</name>
    <type>hikingTourTrail</type>
    <trkseg>
      <trkpt lat="46.573101" lon="11.671181">
        <ele>1221.9</ele>
        <name>Garage Mont Sëuc</name>
        <extensions>
          <oa:Extension>
            <oa:mapZoom>17</oa:mapZoom>
          </oa:Extension>
        </extensions>
      </trkpt>
      <trkpt lat="46.558049" lon="11.664709">
        <ele>2007.4</ele>
        <name>Landschaftsschutzgebiet Seiser Alm – Zona di Tutela Paesaggistica dell&apos;Alpe di Siusi (Alpe di Siusi - Seiser Alm), Kastelruth - Castelrotto, Salten-Schlern - Salto-Sciliar</name>
        <extensions>
          <oa:Extension>
            <oa:mapZoom>17</oa:mapZoom>
          </oa:Extension>
        </extensions>
      </trkpt>
      <trkpt lat="46.557935" lon="11.664658">
        <ele>2001.6</ele>
      </trkpt>
      <trkpt lat="46.557884" lon="11.664632">
        <ele>2001.0</ele>
      </trkpt>
      <trkpt lat="46.557918" lon="11.664561">
        <ele>2001.4</ele>
      </trkpt>
      <trkpt lat="46.557913" lon="11.664239">
        <ele>2007.6</ele>
      </trkpt>
      <trkpt lat="46.557924" lon="11.664128">
        <ele>2008.9</ele>
      </trkpt>
      <trkpt lat="46.55796" lon="11.664043">
        <ele>2010.1</ele>
      </trkpt>
      <trkpt lat="46.557972" lon="11.664024">
        <ele>2010.4</ele>
      </trkpt>
      <trkpt lat="46.558057" lon="11.663988">
        <ele>2012.3</ele>
      </trkpt>
      <trkpt lat="46.558115" lon="11.663967">
        <ele>2014.2</ele>
      </trkpt>
      <trkpt lat="46.558144" lon="11.663951">
        <ele>2014.8</ele>
      </trkpt>
      <trkpt lat="46.55818" lon="11.663921">
        <ele>2015.7</ele>
      </trkpt>
      <trkpt lat="46.558203" lon="11.663869">
        <ele>2016.6</ele>
      </trkpt>
      <trkpt lat="46.558211" lon="11.663837">
        <ele>2016.7</ele>
      </trkpt>
      <trkpt lat="46.558211" lon="11.663774">
        <ele>2016.8</ele>
      </trkpt>
      <trkpt lat="46.558211" lon="11.663702">
        <ele>2017.0</ele>
      </trkpt>
      <trkpt lat="46.558193" lon="11.663599">
        <ele>2017.1</ele>
      </trkpt>
      <trkpt lat="46.558177" lon="11.663469">
        <ele>2017.8</ele>
      </trkpt>
      <trkpt lat="46.558166" lon="11.663264">
        <ele>2018.7</ele>
      </trkpt>
      <trkpt lat="46.558164" lon="11.66318">
        <ele>2019.5</ele>
      </trkpt>
      <trkpt lat="46.55817" lon="11.663041">
        <ele>2021.4</ele>
      </trkpt>
      <trkpt lat="46.558179" lon="11.662912">
        <ele>2022.7</ele>
      </trkpt>
      <trkpt lat="46.558193" lon="11.662753">
        <ele>2024.0</ele>
      </trkpt>
      <trkpt lat="46.558206" lon="11.662567">
        <ele>2026.1</ele>
      </trkpt>
      <trkpt lat="46.558214" lon="11.662458">
        <ele>2027.7</ele>
      </trkpt>
      <trkpt lat="46.55823" lon="11.66231">
        <ele>2029.8</ele>
      </trkpt>
      <trkpt lat="46.55825" lon="11.662181">
        <ele>2032.2</ele>
      </trkpt>
      <trkpt lat="46.558269" lon="11.662042">
        <ele>2034.2</ele>
      </trkpt>
      <trkpt lat="46.55828" lon="11.66187">
        <ele>2036.4</ele>
      </trkpt>
      <trkpt lat="46.558291" lon="11.661658">
        <ele>2038.4</ele>
      </trkpt>
      <trkpt lat="46.558284" lon="11.661448">
        <ele>2038.5</ele>
      </trkpt>
      <trkpt lat="46.55826" lon="11.661195">
        <ele>2038.0</ele>
      </trkpt>
      <trkpt lat="46.558245" lon="11.661066">
        <ele>2037.4</ele>
      </trkpt>
      <trkpt lat="46.558248" lon="11.660928">
        <ele>2037.9</ele>
      </trkpt>
      <trkpt lat="46.55825" lon="11.660865">
        <ele>2038.2</ele>
      </trkpt>
      <trkpt lat="46.558196" lon="11.660502">
        <ele>2042.6</ele>
      </trkpt>
      <trkpt lat="46.558142" lon="11.660139">
        <ele>2043.3</ele>
      </trkpt>
      <trkpt lat="46.558108" lon="11.659802">
        <ele>2042.7</ele>
      </trkpt>
      <trkpt lat="46.558067" lon="11.659394">
        <ele>2042.0</ele>
      </trkpt>
      <trkpt lat="46.557992" lon="11.659039">
        <ele>2041.3</ele>
        <name>Landschaftsschutzgebiet Seiser Alm – Zona di Tutela Paesaggistica dell&apos;Alpe di Siusi (Alpe di Siusi - Seiser Alm), Kastelruth - Castelrotto, Salten-Schlern - Salto-Sciliar</name>
        <extensions>
          <oa:Extension>
            <oa:mapZoom>17</oa:mapZoom>
          </oa:Extension>
        </extensions>
      </trkpt>
      <trkpt lat="46.557948" lon="11.658829">
        <ele>2040.8</ele>
      </trkpt>
      <trkpt lat="46.557878" lon="11.658435">
        <ele>2040.7</ele>
      </trkpt>
      <trkpt lat="46.557794" lon="11.658061">
        <ele>2039.3</ele>
      </trkpt>
      <trkpt lat="46.557705" lon="11.657714">
        <ele>2035.2</ele>
      </trkpt>
      <trkpt lat="46.557574" lon="11.657295">
        <ele>2030.8</ele>
      </trkpt>
      <trkpt lat="46.557448" lon="11.656973">
        <ele>2028.1</ele>
      </trkpt>
      <trkpt lat="46.557312" lon="11.656754">
        <ele>2024.4</ele>
      </trkpt>
      <trkpt lat="46.5572" lon="11.656537">
        <ele>2022.6</ele>
      </trkpt>
      <trkpt lat="46.55707" lon="11.65636">
        <ele>2019.4</ele>
      </trkpt>
      <trkpt lat="46.556974" lon="11.656174">
        <ele>2018.4</ele>
      </trkpt>
      <trkpt lat="46.556885" lon="11.655907">
        <ele>2016.9</ele>
      </trkpt>
      <trkpt lat="46.556806" lon="11.655672">
        <ele>2015.4</ele>
      </trkpt>
      <trkpt lat="46.556701" lon="11.655377">
        <ele>2012.6</ele>
      </trkpt>
      <trkpt lat="46.556573" lon="11.655">
        <ele>2009.7</ele>
      </trkpt>
      <trkpt lat="46.556437" lon="11.654654">
        <ele>2007.3</ele>
      </trkpt>
      <trkpt lat="46.556281" lon="11.654402">
        <ele>2005.3</ele>
      </trkpt>
      <trkpt lat="46.556071" lon="11.654067">
        <ele>2000.6</ele>
      </trkpt>
      <trkpt lat="46.55596" lon="11.653894">
        <ele>1997.8</ele>
      </trkpt>
      <trkpt lat="46.555832" lon="11.65375">
        <ele>1996.1</ele>
      </trkpt>
      <trkpt lat="46.555732" lon="11.653545">
        <ele>1995.2</ele>
      </trkpt>
      <trkpt lat="46.555698" lon="11.653411">
        <ele>1995.7</ele>
      </trkpt>
      <trkpt lat="46.55568" lon="11.653142">
        <ele>1996.2</ele>
      </trkpt>
      <trkpt lat="46.555644" lon="11.652966">
        <ele>1995.3</ele>
      </trkpt>
      <trkpt lat="46.555547" lon="11.652804">
        <ele>1994.9</ele>
      </trkpt>
      <trkpt lat="46.555458" lon="11.6527">
        <ele>1994.7</ele>
      </trkpt>
      <trkpt lat="46.555332" lon="11.652599">
        <ele>1995.1</ele>
      </trkpt>
      <trkpt lat="46.555177" lon="11.652453">
        <ele>1995.2</ele>
      </trkpt>
      <trkpt lat="46.555094" lon="11.652335">
        <ele>1995.0</ele>
      </trkpt>
      <trkpt lat="46.555052" lon="11.65227">
        <ele>1994.9</ele>
      </trkpt>
      <trkpt lat="46.555001" lon="11.652148">
        <ele>1995.2</ele>
      </trkpt>
      <trkpt lat="46.554932" lon="11.651937">
        <ele>1995.3</ele>
      </trkpt>
      <trkpt lat="46.554825" lon="11.651503">
        <ele>1993.4</ele>
      </trkpt>
      <trkpt lat="46.554783" lon="11.651325">
        <ele>1992.9</ele>
      </trkpt>
      <trkpt lat="46.554738" lon="11.651153">
        <ele>1992.9</ele>
      </trkpt>
      <trkpt lat="46.554693" lon="11.65104">
        <ele>1992.6</ele>
      </trkpt>
      <trkpt lat="46.55463" lon="11.650916">
        <ele>1992.6</ele>
      </trkpt>
      <trkpt lat="46.554585" lon="11.650754">
        <ele>1992.1</ele>
      </trkpt>
      <trkpt lat="46.554489" lon="11.650297">
        <ele>1990.9</ele>
      </trkpt>
      <trkpt lat="46.554375" lon="11.649859">
        <ele>1988.1</ele>
      </trkpt>
      <trkpt lat="46.554324" lon="11.649691">
        <ele>1986.9</ele>
      </trkpt>
      <trkpt lat="46.554297" lon="11.649563">
        <ele>1985.9</ele>
      </trkpt>
      <trkpt lat="46.554273" lon="11.64937">
        <ele>1985.0</ele>
      </trkpt>
      <trkpt lat="46.55424" lon="11.649301">
        <ele>1984.7</ele>
      </trkpt>
      <trkpt lat="46.554214" lon="11.649276">
        <ele>1984.7</ele>
      </trkpt>
      <trkpt lat="46.554162" lon="11.649206">
        <ele>1985.1</ele>
      </trkpt>
      <trkpt lat="46.554094" lon="11.649146">
        <ele>1984.7</ele>
      </trkpt>
      <trkpt lat="46.554024" lon="11.649102">
        <ele>1984.4</ele>
      </trkpt>
      <trkpt lat="46.553929" lon="11.649067">
        <ele>1983.4</ele>
      </trkpt>
      <trkpt lat="46.553806" lon="11.648976">
        <ele>1982.3</ele>
      </trkpt>
      <trkpt lat="46.553726" lon="11.648887">
        <ele>1981.5</ele>
      </trkpt>
      <trkpt lat="46.553678" lon="11.648784">
        <ele>1981.4</ele>
      </trkpt>
      <trkpt lat="46.553557" lon="11.648421">
        <ele>1978.6</ele>
      </trkpt>
      <trkpt lat="46.553436" lon="11.648057">
        <ele>1976.3</ele>
      </trkpt>
      <trkpt lat="46.553384" lon="11.648017">
        <ele>1975.8</ele>
      </trkpt>
      <trkpt lat="46.553328" lon="11.647964">
        <ele>1975.8</ele>
      </trkpt>
      <trkpt lat="46.553242" lon="11.64783">
        <ele>1975.0</ele>
      </trkpt>
      <trkpt lat="46.553092" lon="11.647644">
        <ele>1973.0</ele>
      </trkpt>
      <trkpt lat="46.552998" lon="11.647565">
        <ele>1971.3</ele>
      </trkpt>
      <trkpt lat="46.552912" lon="11.647489">
        <ele>1969.1</ele>
      </trkpt>
      <trkpt lat="46.552793" lon="11.647331">
        <ele>1965.6</ele>
      </trkpt>
      <trkpt lat="46.552717" lon="11.647269">
        <ele>1963.8</ele>
      </trkpt>
      <trkpt lat="46.552444" lon="11.646999">
        <ele>1959.1</ele>
      </trkpt>
      <trkpt lat="46.552199" lon="11.64673">
        <ele>1955.6</ele>
      </trkpt>
      <trkpt lat="46.552007" lon="11.646574">
        <ele>1952.0</ele>
      </trkpt>
      <trkpt lat="46.551738" lon="11.646242">
        <ele>1945.9</ele>
      </trkpt>
      <trkpt lat="46.551638" lon="11.646157">
        <ele>1943.5</ele>
      </trkpt>
      <trkpt lat="46.551512" lon="11.646027">
        <ele>1940.4</ele>
      </trkpt>
      <trkpt lat="46.551459" lon="11.645995">
        <ele>1939.2</ele>
      </trkpt>
      <trkpt lat="46.55136" lon="11.645975">
        <ele>1936.7</ele>
      </trkpt>
      <trkpt lat="46.551234" lon="11.64599">
        <ele>1933.4</ele>
      </trkpt>
      <trkpt lat="46.551007" lon="11.645988">
        <ele>1929.5</ele>
      </trkpt>
      <trkpt lat="46.550779" lon="11.645986">
        <ele>1926.5</ele>
      </trkpt>
      <trkpt lat="46.550648" lon="11.646007">
        <ele>1925.4</ele>
      </trkpt>
      <trkpt lat="46.550542" lon="11.646119">
        <ele>1923.8</ele>
      </trkpt>
      <trkpt lat="46.550477" lon="11.646212">
        <ele>1922.8</ele>
      </trkpt>
      <trkpt lat="46.550169" lon="11.646656">
        <ele>1920.6</ele>
      </trkpt>
      <trkpt lat="46.550059" lon="11.646575">
        <ele>1920.7</ele>
      </trkpt>
      <trkpt lat="46.549949" lon="11.64666">
        <ele>1920.5</ele>
      </trkpt>
      <trkpt lat="46.549705" lon="11.646565">
        <ele>1919.7</ele>
      </trkpt>
      <trkpt lat="46.54946" lon="11.646471">
        <ele>1920.5</ele>
      </trkpt>
      <trkpt lat="46.54934" lon="11.646445">
        <ele>1921.4</ele>
      </trkpt>
      <trkpt lat="46.549242" lon="11.646435">
        <ele>1922.5</ele>
      </trkpt>
      <trkpt lat="46.549131" lon="11.646461">
        <ele>1923.8</ele>
      </trkpt>
      <trkpt lat="46.548977" lon="11.646528">
        <ele>1925.2</ele>
      </trkpt>
      <trkpt lat="46.548834" lon="11.646607">
        <ele>1926.0</ele>
      </trkpt>
      <trkpt lat="46.548738" lon="11.646674">
        <ele>1925.9</ele>
      </trkpt>
      <trkpt lat="46.548557" lon="11.646824">
        <ele>1923.8</ele>
      </trkpt>
      <trkpt lat="46.54851" lon="11.646847">
        <ele>1923.3</ele>
      </trkpt>
      <trkpt lat="46.548435" lon="11.646868">
        <ele>1922.3</ele>
      </trkpt>
      <trkpt lat="46.548277" lon="11.646888">
        <ele>1921.3</ele>
      </trkpt>
      <trkpt lat="46.548162" lon="11.646906">
        <ele>1921.8</ele>
      </trkpt>
      <trkpt lat="46.54808" lon="11.646971">
        <ele>1922.7</ele>
      </trkpt>
      <trkpt lat="46.548016" lon="11.647023">
        <ele>1923.5</ele>
      </trkpt>
      <trkpt lat="46.547954" lon="11.647078">
        <ele>1923.6</ele>
      </trkpt>
      <trkpt lat="46.547718" lon="11.647257">
        <ele>1921.6</ele>
      </trkpt>
      <trkpt lat="46.547577" lon="11.647362">
        <ele>1920.1</ele>
      </trkpt>
      <trkpt lat="46.547478" lon="11.647437">
        <ele>1919.2</ele>
      </trkpt>
      <trkpt lat="46.547323" lon="11.647587">
        <ele>1918.4</ele>
      </trkpt>
      <trkpt lat="46.547224" lon="11.647686">
        <ele>1917.8</ele>
      </trkpt>
      <trkpt lat="46.547162" lon="11.647785">
        <ele>1917.3</ele>
      </trkpt>
      <trkpt lat="46.5471" lon="11.647918">
        <ele>1916.2</ele>
      </trkpt>
      <trkpt lat="46.547054" lon="11.647994">
        <ele>1915.4</ele>
      </trkpt>
      <trkpt lat="46.547013" lon="11.648067">
        <ele>1914.8</ele>
      </trkpt>
      <trkpt lat="46.546978" lon="11.648114">
        <ele>1914.2</ele>
      </trkpt>
      <trkpt lat="46.54687" lon="11.648251">
        <ele>1912.5</ele>
      </trkpt>
      <trkpt lat="46.546653" lon="11.648444">
        <ele>1910.0</ele>
      </trkpt>
      <trkpt lat="46.546541" lon="11.648526">
        <ele>1908.8</ele>
      </trkpt>
      <trkpt lat="46.546455" lon="11.64856">
        <ele>1907.8</ele>
      </trkpt>
      <trkpt lat="46.546362" lon="11.648577">
        <ele>1906.8</ele>
      </trkpt>
      <trkpt lat="46.546286" lon="11.648563">
        <ele>1905.9</ele>
      </trkpt>
      <trkpt lat="46.546216" lon="11.64853">
        <ele>1905.1</ele>
      </trkpt>
      <trkpt lat="46.546146" lon="11.648462">
        <ele>1904.4</ele>
      </trkpt>
      <trkpt lat="46.54605" lon="11.648319">
        <ele>1903.0</ele>
      </trkpt>
      <trkpt lat="46.545969" lon="11.648167">
        <ele>1901.2</ele>
      </trkpt>
      <trkpt lat="46.545926" lon="11.648042">
        <ele>1899.7</ele>
      </trkpt>
      <trkpt lat="46.545906" lon="11.647934">
        <ele>1898.8</ele>
      </trkpt>
      <trkpt lat="46.545904" lon="11.647838">
        <ele>1897.8</ele>
      </trkpt>
      <trkpt lat="46.545907" lon="11.64772">
        <ele>1896.7</ele>
      </trkpt>
      <trkpt lat="46.545905" lon="11.6477">
        <ele>1896.5</ele>
        <name>Piz, Kastelruth - Castelrotto, Salten-Schlern - Salto-Sciliar</name>
        <extensions>
          <oa:Extension>
            <oa:mapZoom>19</oa:mapZoom>
          </oa:Extension>
        </extensions>
      </trkpt>
      <trkpt lat="46.545894" lon="11.647627">
        <ele>1895.9</ele>
      </trkpt>
      <trkpt lat="46.545855" lon="11.647544">
        <ele>1895.1</ele>
      </trkpt>
      <trkpt lat="46.545791" lon="11.647498">
        <ele>1894.3</ele>
      </trkpt>
      <trkpt lat="46.545721" lon="11.647458">
        <ele>1893.3</ele>
      </trkpt>
      <trkpt lat="46.545686" lon="11.647433">
        <ele>1892.7</ele>
      </trkpt>
      <trkpt lat="46.545655" lon="11.647389">
        <ele>1892.1</ele>
      </trkpt>
      <trkpt lat="46.545633" lon="11.647313">
        <ele>1891.6</ele>
      </trkpt>
      <trkpt lat="46.545604" lon="11.647201">
        <ele>1890.7</ele>
      </trkpt>
      <trkpt lat="46.545564" lon="11.647113">
        <ele>1889.7</ele>
      </trkpt>
      <trkpt lat="46.54552" lon="11.64706">
        <ele>1889.0</ele>
      </trkpt>
      <trkpt lat="46.545467" lon="11.64702">
        <ele>1888.5</ele>
      </trkpt>
      <trkpt lat="46.545421" lon="11.647015">
        <ele>1888.0</ele>
      </trkpt>
      <trkpt lat="46.545363" lon="11.647053">
        <ele>1887.3</ele>
      </trkpt>
      <trkpt lat="46.545295" lon="11.647129">
        <ele>1886.2</ele>
      </trkpt>
      <trkpt lat="46.545193" lon="11.647225">
        <ele>1884.5</ele>
      </trkpt>
      <trkpt lat="46.545111" lon="11.647275">
        <ele>1883.3</ele>
      </trkpt>
      <trkpt lat="46.545053" lon="11.647296">
        <ele>1882.4</ele>
      </trkpt>
      <trkpt lat="46.545009" lon="11.64729">
        <ele>1881.9</ele>
      </trkpt>
      <trkpt lat="46.544973" lon="11.64726">
        <ele>1881.3</ele>
      </trkpt>
      <trkpt lat="46.544865" lon="11.647065">
        <ele>1879.1</ele>
      </trkpt>
      <trkpt lat="46.544824" lon="11.647022">
        <ele>1878.4</ele>
      </trkpt>
      <trkpt lat="46.544777" lon="11.647">
        <ele>1877.8</ele>
      </trkpt>
      <trkpt lat="46.54472" lon="11.646995">
        <ele>1877.1</ele>
      </trkpt>
      <trkpt lat="46.544664" lon="11.647014">
        <ele>1876.4</ele>
      </trkpt>
      <trkpt lat="46.544436" lon="11.647097">
        <ele>1874.3</ele>
      </trkpt>
      <trkpt lat="46.544208" lon="11.64718">
        <ele>1873.4</ele>
      </trkpt>
      <trkpt lat="46.544037" lon="11.64724">
        <ele>1872.9</ele>
      </trkpt>
      <trkpt lat="46.543898" lon="11.647271">
        <ele>1872.9</ele>
      </trkpt>
      <trkpt lat="46.543749" lon="11.647265">
        <ele>1872.8</ele>
      </trkpt>
      <trkpt lat="46.543652" lon="11.647257">
        <ele>1872.5</ele>
      </trkpt>
      <trkpt lat="46.543438" lon="11.647172">
        <ele>1872.0</ele>
      </trkpt>
      <trkpt lat="46.543222" lon="11.647083">
        <ele>1871.9</ele>
      </trkpt>
      <trkpt lat="46.543104" lon="11.647022">
        <ele>1871.8</ele>
      </trkpt>
      <trkpt lat="46.543062" lon="11.646971">
        <ele>1871.4</ele>
      </trkpt>
      <trkpt lat="46.543017" lon="11.646893">
        <ele>1870.8</ele>
      </trkpt>
      <trkpt lat="46.542896" lon="11.646613">
        <ele>1868.4</ele>
      </trkpt>
      <trkpt lat="46.542838" lon="11.646463">
        <ele>1867.6</ele>
      </trkpt>
      <trkpt lat="46.542779" lon="11.646242">
        <ele>1866.9</ele>
      </trkpt>
      <trkpt lat="46.542706" lon="11.645858">
        <ele>1865.2</ele>
      </trkpt>
      <trkpt lat="46.542656" lon="11.645659">
        <ele>1864.4</ele>
      </trkpt>
      <trkpt lat="46.54262" lon="11.645598">
        <ele>1863.9</ele>
      </trkpt>
      <trkpt lat="46.54257" lon="11.645557">
        <ele>1863.4</ele>
      </trkpt>
      <trkpt lat="46.542433" lon="11.645515">
        <ele>1862.5</ele>
      </trkpt>
      <trkpt lat="46.542358" lon="11.64553">
        <ele>1861.8</ele>
      </trkpt>
      <trkpt lat="46.542263" lon="11.645524">
        <ele>1861.2</ele>
      </trkpt>
      <trkpt lat="46.542162" lon="11.645497">
        <ele>1861.0</ele>
      </trkpt>
      <trkpt lat="46.542052" lon="11.645425">
        <ele>1861.1</ele>
      </trkpt>
      <trkpt lat="46.54197" lon="11.645345">
        <ele>1861.7</ele>
      </trkpt>
      <trkpt lat="46.5419" lon="11.64526">
        <ele>1862.7</ele>
      </trkpt>
      <trkpt lat="46.541833" lon="11.645164">
        <ele>1863.9</ele>
      </trkpt>
      <trkpt lat="46.541735" lon="11.644871">
        <ele>1865.0</ele>
      </trkpt>
      <trkpt lat="46.541649" lon="11.644605">
        <ele>1864.4</ele>
      </trkpt>
      <trkpt lat="46.541578" lon="11.644404">
        <ele>1864.5</ele>
      </trkpt>
      <trkpt lat="46.541493" lon="11.644756">
        <ele>1865.2</ele>
      </trkpt>
      <trkpt lat="46.541446" lon="11.644902">
        <ele>1865.5</ele>
      </trkpt>
      <trkpt lat="46.541399" lon="11.645002">
        <ele>1865.6</ele>
      </trkpt>
      <trkpt lat="46.541355" lon="11.645076">
        <ele>1865.6</ele>
      </trkpt>
      <trkpt lat="46.541321" lon="11.645122">
        <ele>1865.5</ele>
      </trkpt>
      <trkpt lat="46.54126" lon="11.645185">
        <ele>1865.5</ele>
      </trkpt>
      <trkpt lat="46.541111" lon="11.64527">
        <ele>1865.6</ele>
      </trkpt>
      <trkpt lat="46.540862" lon="11.645391">
        <ele>1865.4</ele>
      </trkpt>
      <trkpt lat="46.540612" lon="11.645511">
        <ele>1865.4</ele>
      </trkpt>
      <trkpt lat="46.540345" lon="11.645645">
        <ele>1865.2</ele>
      </trkpt>
      <trkpt lat="46.540069" lon="11.645762">
        <ele>1865.0</ele>
      </trkpt>
      <trkpt lat="46.540055" lon="11.645684">
        <ele>1865.0</ele>
      </trkpt>
      <trkpt lat="46.540017" lon="11.645703">
        <ele>1865.1</ele>
      </trkpt>
      <trkpt lat="46.539922" lon="11.645745">
        <ele>1865.3</ele>
      </trkpt>
      <trkpt lat="46.539817" lon="11.645779">
        <ele>1865.2</ele>
      </trkpt>
      <trkpt lat="46.539732" lon="11.645796">
        <ele>1865.2</ele>
      </trkpt>
      <trkpt lat="46.539636" lon="11.645824">
        <ele>1865.7</ele>
      </trkpt>
      <trkpt lat="46.539573" lon="11.645843">
        <ele>1866.0</ele>
      </trkpt>
      <trkpt lat="46.539517" lon="11.645862">
        <ele>1866.6</ele>
      </trkpt>
      <trkpt lat="46.539488" lon="11.645871">
        <ele>1866.9</ele>
      </trkpt>
      <trkpt lat="46.539456" lon="11.645877">
        <ele>1867.2</ele>
      </trkpt>
      <trkpt lat="46.539423" lon="11.645901">
        <ele>1867.3</ele>
      </trkpt>
      <trkpt lat="46.539386" lon="11.645952">
        <ele>1867.5</ele>
      </trkpt>
      <trkpt lat="46.539355" lon="11.646031">
        <ele>1867.4</ele>
      </trkpt>
      <trkpt lat="46.539338" lon="11.646125">
        <ele>1868.0</ele>
      </trkpt>
      <trkpt lat="46.539317" lon="11.646249">
        <ele>1868.8</ele>
      </trkpt>
      <trkpt lat="46.539295" lon="11.646454">
        <ele>1869.2</ele>
      </trkpt>
      <trkpt lat="46.539283" lon="11.646595">
        <ele>1869.4</ele>
      </trkpt>
      <trkpt lat="46.539259" lon="11.646725">
        <ele>1870.1</ele>
      </trkpt>
      <trkpt lat="46.539217" lon="11.646987">
        <ele>1870.3</ele>
      </trkpt>
      <trkpt lat="46.539171" lon="11.647188">
        <ele>1870.4</ele>
      </trkpt>
      <trkpt lat="46.539124" lon="11.647398">
        <ele>1870.8</ele>
      </trkpt>
      <trkpt lat="46.539083" lon="11.647585">
        <ele>1871.2</ele>
      </trkpt>
      <trkpt lat="46.539027" lon="11.647777">
        <ele>1871.6</ele>
      </trkpt>
      <trkpt lat="46.538988" lon="11.647894">
        <ele>1871.7</ele>
      </trkpt>
      <trkpt lat="46.538943" lon="11.648">
        <ele>1871.8</ele>
      </trkpt>
      <trkpt lat="46.538904" lon="11.64809">
        <ele>1871.6</ele>
      </trkpt>
      <trkpt lat="46.538859" lon="11.6482">
        <ele>1872.1</ele>
      </trkpt>
      <trkpt lat="46.538803" lon="11.648346">
        <ele>1872.3</ele>
      </trkpt>
      <trkpt lat="46.538749" lon="11.648468">
        <ele>1870.6</ele>
      </trkpt>
      <trkpt lat="46.538719" lon="11.648586">
        <ele>1870.0</ele>
      </trkpt>
      <trkpt lat="46.538691" lon="11.648705">
        <ele>1871.4</ele>
      </trkpt>
      <trkpt lat="46.538616" lon="11.648912">
        <ele>1871.8</ele>
      </trkpt>
      <trkpt lat="46.538567" lon="11.649076">
        <ele>1873.8</ele>
      </trkpt>
      <trkpt lat="46.53854" lon="11.649173">
        <ele>1873.6</ele>
      </trkpt>
      <trkpt lat="46.538508" lon="11.649271">
        <ele>1873.0</ele>
      </trkpt>
      <trkpt lat="46.538498" lon="11.649303">
        <ele>1872.5</ele>
      </trkpt>
      <trkpt lat="46.538494" lon="11.64933">
        <ele>1871.9</ele>
      </trkpt>
      <trkpt lat="46.538495" lon="11.649367">
        <ele>1871.2</ele>
      </trkpt>
      <trkpt lat="46.5385" lon="11.649393">
        <ele>1870.8</ele>
      </trkpt>
      <trkpt lat="46.538509" lon="11.649424">
        <ele>1870.5</ele>
      </trkpt>
      <trkpt lat="46.538546" lon="11.649483">
        <ele>1870.9</ele>
      </trkpt>
      <trkpt lat="46.53858" lon="11.649518">
        <ele>1871.7</ele>
      </trkpt>
      <trkpt lat="46.538606" lon="11.64955">
        <ele>1871.8</ele>
      </trkpt>
      <trkpt lat="46.53862" lon="11.649586">
        <ele>1872.2</ele>
      </trkpt>
      <trkpt lat="46.538629" lon="11.649631">
        <ele>1872.7</ele>
      </trkpt>
      <trkpt lat="46.538632" lon="11.649699">
        <ele>1872.8</ele>
      </trkpt>
      <trkpt lat="46.538623" lon="11.649764">
        <ele>1873.1</ele>
      </trkpt>
      <trkpt lat="46.538591" lon="11.649917">
        <ele>1873.7</ele>
      </trkpt>
      <trkpt lat="46.538565" lon="11.650021">
        <ele>1874.2</ele>
      </trkpt>
      <trkpt lat="46.538555" lon="11.650118">
        <ele>1873.7</ele>
      </trkpt>
      <trkpt lat="46.538541" lon="11.650223">
        <ele>1873.6</ele>
      </trkpt>
      <trkpt lat="46.538522" lon="11.650328">
        <ele>1873.7</ele>
      </trkpt>
      <trkpt lat="46.538494" lon="11.650422">
        <ele>1874.2</ele>
      </trkpt>
      <trkpt lat="46.53845" lon="11.650521">
        <ele>1874.4</ele>
      </trkpt>
      <trkpt lat="46.538409" lon="11.65061">
        <ele>1875.0</ele>
      </trkpt>
      <trkpt lat="46.53838" lon="11.650667">
        <ele>1875.1</ele>
      </trkpt>
      <trkpt lat="46.538333" lon="11.650725">
        <ele>1875.3</ele>
      </trkpt>
      <trkpt lat="46.538289" lon="11.650777">
        <ele>1874.4</ele>
      </trkpt>
      <trkpt lat="46.538253" lon="11.650813">
        <ele>1874.2</ele>
      </trkpt>
      <trkpt lat="46.538221" lon="11.650861">
        <ele>1874.3</ele>
      </trkpt>
      <trkpt lat="46.538194" lon="11.650935">
        <ele>1874.8</ele>
      </trkpt>
      <trkpt lat="46.53817" lon="11.651023">
        <ele>1875.1</ele>
      </trkpt>
      <trkpt lat="46.538156" lon="11.651091">
        <ele>1874.8</ele>
      </trkpt>
      <trkpt lat="46.538155" lon="11.651146">
        <ele>1874.6</ele>
      </trkpt>
      <trkpt lat="46.538175" lon="11.651238">
        <ele>1874.0</ele>
      </trkpt>
      <trkpt lat="46.538183" lon="11.651342">
        <ele>1874.3</ele>
      </trkpt>
      <trkpt lat="46.538172" lon="11.651471">
        <ele>1875.3</ele>
      </trkpt>
      <trkpt lat="46.538148" lon="11.651567">
        <ele>1874.9</ele>
      </trkpt>
      <trkpt lat="46.538132" lon="11.651664">
        <ele>1873.8</ele>
      </trkpt>
      <trkpt lat="46.538121" lon="11.651756">
        <ele>1873.5</ele>
      </trkpt>
      <trkpt lat="46.5381" lon="11.651815">
        <ele>1874.0</ele>
      </trkpt>
      <trkpt lat="46.538059" lon="11.651896">
        <ele>1873.8</ele>
      </trkpt>
      <trkpt lat="46.538031" lon="11.651952">
        <ele>1873.9</ele>
      </trkpt>
      <trkpt lat="46.538017" lon="11.652008">
        <ele>1873.8</ele>
      </trkpt>
      <trkpt lat="46.538017" lon="11.652121">
        <ele>1873.4</ele>
      </trkpt>
      <trkpt lat="46.538029" lon="11.652282">
        <ele>1872.3</ele>
      </trkpt>
      <trkpt lat="46.538034" lon="11.652458">
        <ele>1870.7</ele>
      </trkpt>
      <trkpt lat="46.538028" lon="11.652642">
        <ele>1870.1</ele>
      </trkpt>
      <trkpt lat="46.537994" lon="11.652802">
        <ele>1868.6</ele>
      </trkpt>
      <trkpt lat="46.537979" lon="11.652956">
        <ele>1867.0</ele>
      </trkpt>
      <trkpt lat="46.537973" lon="11.653062">
        <ele>1866.2</ele>
      </trkpt>
      <trkpt lat="46.537935" lon="11.653204">
        <ele>1865.4</ele>
      </trkpt>
      <trkpt lat="46.537863" lon="11.653453">
        <ele>1862.9</ele>
      </trkpt>
      <trkpt lat="46.537866" lon="11.653585">
        <ele>1862.2</ele>
      </trkpt>
      <trkpt lat="46.537848" lon="11.65368">
        <ele>1861.7</ele>
      </trkpt>
      <trkpt lat="46.537843" lon="11.653747">
        <ele>1861.3</ele>
      </trkpt>
      <trkpt lat="46.537845" lon="11.653812">
        <ele>1861.0</ele>
      </trkpt>
      <trkpt lat="46.537854" lon="11.653864">
        <ele>1860.7</ele>
      </trkpt>
      <trkpt lat="46.537848" lon="11.653879">
        <ele>1860.8</ele>
        <name>GS/SC19.4, Kastelruth - Castelrotto, Salten-Schlern - Salto-Sciliar</name>
        <extensions>
          <oa:Extension>
            <oa:mapZoom>19</oa:mapZoom>
          </oa:Extension>
        </extensions>
      </trkpt>
      <trkpt lat="46.537806" lon="11.653978">
        <ele>1861.0</ele>
      </trkpt>
      <trkpt lat="46.537757" lon="11.654091">
        <ele>1860.6</ele>
      </trkpt>
      <trkpt lat="46.537707" lon="11.65424">
        <ele>1859.5</ele>
      </trkpt>
      <trkpt lat="46.537634" lon="11.654435">
        <ele>1857.7</ele>
      </trkpt>
      <trkpt lat="46.53757" lon="11.654616">
        <ele>1855.6</ele>
      </trkpt>
      <trkpt lat="46.537537" lon="11.654654">
        <ele>1854.9</ele>
      </trkpt>
      <trkpt lat="46.537509" lon="11.654674">
        <ele>1854.5</ele>
      </trkpt>
      <trkpt lat="46.537472" lon="11.654693">
        <ele>1854.0</ele>
      </trkpt>
      <trkpt lat="46.537429" lon="11.654694">
        <ele>1853.6</ele>
      </trkpt>
      <trkpt lat="46.537386" lon="11.654678">
        <ele>1853.2</ele>
      </trkpt>
      <trkpt lat="46.537233" lon="11.654682">
        <ele>1850.3</ele>
      </trkpt>
      <trkpt lat="46.537155" lon="11.65467">
        <ele>1849.6</ele>
      </trkpt>
      <trkpt lat="46.537144" lon="11.654671">
        <ele>1849.5</ele>
      </trkpt>
      <trkpt lat="46.537131" lon="11.654675">
        <ele>1849.3</ele>
      </trkpt>
      <trkpt lat="46.53703" lon="11.654739">
        <ele>1847.1</ele>
      </trkpt>
      <trkpt lat="46.536962" lon="11.654757">
        <ele>1845.6</ele>
      </trkpt>
      <trkpt lat="46.536829" lon="11.654782">
        <ele>1842.4</ele>
      </trkpt>
      <trkpt lat="46.536759" lon="11.654793">
        <ele>1840.9</ele>
      </trkpt>
      <trkpt lat="46.536381" lon="11.654884">
        <ele>1833.6</ele>
      </trkpt>
      <trkpt lat="46.536004" lon="11.654976">
        <ele>1829.1</ele>
      </trkpt>
      <trkpt lat="46.535896" lon="11.654982">
        <ele>1827.8</ele>
      </trkpt>
      <trkpt lat="46.535793" lon="11.654974">
        <ele>1826.5</ele>
      </trkpt>
      <trkpt lat="46.535592" lon="11.654934">
        <ele>1822.0</ele>
      </trkpt>
      <trkpt lat="46.535555" lon="11.654977">
        <ele>1821.0</ele>
      </trkpt>
      <trkpt lat="46.535472" lon="11.654967">
        <ele>1819.3</ele>
      </trkpt>
      <trkpt lat="46.535359" lon="11.654938">
        <ele>1817.1</ele>
      </trkpt>
      <trkpt lat="46.535301" lon="11.654925">
        <ele>1817.1</ele>
      </trkpt>
      <trkpt lat="46.535033" lon="11.654841">
        <ele>1819.3</ele>
      </trkpt>
      <trkpt lat="46.534782" lon="11.654766">
        <ele>1821.0</ele>
      </trkpt>
      <trkpt lat="46.534772" lon="11.654765">
        <ele>1821.0</ele>
      </trkpt>
      <trkpt lat="46.534765" lon="11.654769">
        <ele>1821.0</ele>
      </trkpt>
      <trkpt lat="46.534757" lon="11.654782">
        <ele>1820.9</ele>
      </trkpt>
      <trkpt lat="46.534734" lon="11.654836">
        <ele>1820.3</ele>
      </trkpt>
      <trkpt lat="46.534714" lon="11.654924">
        <ele>1819.7</ele>
      </trkpt>
      <trkpt lat="46.534673" lon="11.655073">
        <ele>1819.2</ele>
      </trkpt>
      <trkpt lat="46.534609" lon="11.655244">
        <ele>1818.3</ele>
      </trkpt>
      <trkpt lat="46.534548" lon="11.655384">
        <ele>1817.7</ele>
      </trkpt>
      <trkpt lat="46.534513" lon="11.655456">
        <ele>1817.4</ele>
      </trkpt>
      <trkpt lat="46.534449" lon="11.655563">
        <ele>1816.1</ele>
      </trkpt>
      <trkpt lat="46.5344" lon="11.655629">
        <ele>1815.3</ele>
      </trkpt>
      <trkpt lat="46.534324" lon="11.655715">
        <ele>1814.8</ele>
      </trkpt>
      <trkpt lat="46.534201" lon="11.655841">
        <ele>1813.4</ele>
      </trkpt>
      <trkpt lat="46.534139" lon="11.655883">
        <ele>1812.7</ele>
      </trkpt>
      <trkpt lat="46.534055" lon="11.655929">
        <ele>1811.5</ele>
      </trkpt>
      <trkpt lat="46.533961" lon="11.655995">
        <ele>1809.5</ele>
      </trkpt>
      <trkpt lat="46.533843" lon="11.656044">
        <ele>1807.5</ele>
      </trkpt>
      <trkpt lat="46.53379" lon="11.656067">
        <ele>1806.8</ele>
      </trkpt>
      <trkpt lat="46.533732" lon="11.656105">
        <ele>1805.6</ele>
      </trkpt>
      <trkpt lat="46.533691" lon="11.656144">
        <ele>1805.1</ele>
      </trkpt>
      <trkpt lat="46.533651" lon="11.656171">
        <ele>1804.9</ele>
      </trkpt>
      <trkpt lat="46.533607" lon="11.656191">
        <ele>1804.2</ele>
      </trkpt>
      <trkpt lat="46.533566" lon="11.656201">
        <ele>1803.6</ele>
      </trkpt>
      <trkpt lat="46.533534" lon="11.6562">
        <ele>1803.3</ele>
      </trkpt>
      <trkpt lat="46.533507" lon="11.656207">
        <ele>1803.0</ele>
      </trkpt>
      <trkpt lat="46.533487" lon="11.656225">
        <ele>1802.6</ele>
      </trkpt>
      <trkpt lat="46.533462" lon="11.656249">
        <ele>1802.4</ele>
      </trkpt>
      <trkpt lat="46.533434" lon="11.656278">
        <ele>1802.2</ele>
      </trkpt>
      <trkpt lat="46.533401" lon="11.656316">
        <ele>1801.9</ele>
      </trkpt>
      <trkpt lat="46.533368" lon="11.656341">
        <ele>1801.7</ele>
      </trkpt>
      <trkpt lat="46.53333" lon="11.656359">
        <ele>1801.0</ele>
      </trkpt>
      <trkpt lat="46.533293" lon="11.656381">
        <ele>1800.4</ele>
      </trkpt>
      <trkpt lat="46.533261" lon="11.65642">
        <ele>1799.6</ele>
      </trkpt>
      <trkpt lat="46.53323" lon="11.656474">
        <ele>1798.9</ele>
      </trkpt>
      <trkpt lat="46.533209" lon="11.656532">
        <ele>1797.9</ele>
      </trkpt>
      <trkpt lat="46.53318" lon="11.656586">
        <ele>1797.2</ele>
      </trkpt>
      <trkpt lat="46.533137" lon="11.656672">
        <ele>1796.7</ele>
      </trkpt>
      <trkpt lat="46.53307" lon="11.656776">
        <ele>1794.8</ele>
      </trkpt>
      <trkpt lat="46.53304" lon="11.656824">
        <ele>1793.9</ele>
      </trkpt>
      <trkpt lat="46.533005" lon="11.656865">
        <ele>1793.0</ele>
      </trkpt>
      <trkpt lat="46.532984" lon="11.656883">
        <ele>1792.5</ele>
      </trkpt>
      <trkpt lat="46.532962" lon="11.656901">
        <ele>1792.1</ele>
      </trkpt>
      <trkpt lat="46.532928" lon="11.656928">
        <ele>1791.5</ele>
      </trkpt>
      <trkpt lat="46.532866" lon="11.656978">
        <ele>1790.5</ele>
      </trkpt>
      <trkpt lat="46.532854" lon="11.656998">
        <ele>1790.0</ele>
      </trkpt>
      <trkpt lat="46.532835" lon="11.657019">
        <ele>1789.6</ele>
      </trkpt>
      <trkpt lat="46.532806" lon="11.657028">
        <ele>1789.3</ele>
      </trkpt>
      <trkpt lat="46.532776" lon="11.657051">
        <ele>1788.7</ele>
      </trkpt>
      <trkpt lat="46.532746" lon="11.657078">
        <ele>1788.0</ele>
      </trkpt>
      <trkpt lat="46.532717" lon="11.657096">
        <ele>1787.4</ele>
      </trkpt>
      <trkpt lat="46.532699" lon="11.657124">
        <ele>1786.7</ele>
      </trkpt>
      <trkpt lat="46.532675" lon="11.657168">
        <ele>1785.6</ele>
      </trkpt>
      <trkpt lat="46.532656" lon="11.65722">
        <ele>1784.6</ele>
      </trkpt>
      <trkpt lat="46.532641" lon="11.657312">
        <ele>1782.7</ele>
      </trkpt>
      <trkpt lat="46.532655" lon="11.657386">
        <ele>1781.2</ele>
      </trkpt>
      <trkpt lat="46.532674" lon="11.65744">
        <ele>1780.0</ele>
      </trkpt>
      <trkpt lat="46.5327" lon="11.657491">
        <ele>1778.9</ele>
      </trkpt>
      <trkpt lat="46.53276" lon="11.657575">
        <ele>1777.3</ele>
      </trkpt>
      <trkpt lat="46.532868" lon="11.657689">
        <ele>1773.8</ele>
      </trkpt>
      <trkpt lat="46.532884" lon="11.657722">
        <ele>1772.7</ele>
      </trkpt>
      <trkpt lat="46.532884" lon="11.657748">
        <ele>1772.3</ele>
      </trkpt>
      <trkpt lat="46.532878" lon="11.65777">
        <ele>1771.9</ele>
      </trkpt>
      <trkpt lat="46.532864" lon="11.657798">
        <ele>1771.5</ele>
      </trkpt>
      <trkpt lat="46.5328" lon="11.657849">
        <ele>1770.3</ele>
      </trkpt>
      <trkpt lat="46.532747" lon="11.657887">
        <ele>1769.7</ele>
      </trkpt>
      <trkpt lat="46.532712" lon="11.657938">
        <ele>1768.2</ele>
      </trkpt>
      <trkpt lat="46.532684" lon="11.658005">
        <ele>1766.5</ele>
      </trkpt>
      <trkpt lat="46.532675" lon="11.658018">
        <ele>1766.2</ele>
      </trkpt>
      <trkpt lat="46.53266" lon="11.658031">
        <ele>1765.8</ele>
      </trkpt>
      <trkpt lat="46.532629" lon="11.658039">
        <ele>1765.6</ele>
      </trkpt>
      <trkpt lat="46.532609" lon="11.658045">
        <ele>1765.4</ele>
      </trkpt>
      <trkpt lat="46.532578" lon="11.658057">
        <ele>1764.9</ele>
      </trkpt>
      <trkpt lat="46.532525" lon="11.658066">
        <ele>1763.5</ele>
      </trkpt>
      <trkpt lat="46.532493" lon="11.65807">
        <ele>1763.0</ele>
      </trkpt>
      <trkpt lat="46.532473" lon="11.658078">
        <ele>1762.5</ele>
      </trkpt>
      <trkpt lat="46.53246" lon="11.658093">
        <ele>1761.7</ele>
      </trkpt>
      <trkpt lat="46.532457" lon="11.658101">
        <ele>1761.4</ele>
      </trkpt>
      <trkpt lat="46.532458" lon="11.658113">
        <ele>1760.9</ele>
      </trkpt>
      <trkpt lat="46.532467" lon="11.65812">
        <ele>1760.6</ele>
      </trkpt>
      <trkpt lat="46.532489" lon="11.658134">
        <ele>1760.3</ele>
      </trkpt>
      <trkpt lat="46.532491" lon="11.658138">
        <ele>1760.2</ele>
      </trkpt>
      <trkpt lat="46.532491" lon="11.658144">
        <ele>1759.9</ele>
      </trkpt>
      <trkpt lat="46.532487" lon="11.658153">
        <ele>1759.5</ele>
      </trkpt>
      <trkpt lat="46.532483" lon="11.658158">
        <ele>1759.3</ele>
      </trkpt>
      <trkpt lat="46.532481" lon="11.658166">
        <ele>1759.1</ele>
      </trkpt>
      <trkpt lat="46.532486" lon="11.658184">
        <ele>1758.7</ele>
      </trkpt>
      <trkpt lat="46.532504" lon="11.658216">
        <ele>1758.3</ele>
      </trkpt>
      <trkpt lat="46.532518" lon="11.658291">
        <ele>1758.0</ele>
      </trkpt>
      <trkpt lat="46.532511" lon="11.658341">
        <ele>1758.1</ele>
      </trkpt>
      <trkpt lat="46.532491" lon="11.658399">
        <ele>1757.4</ele>
      </trkpt>
      <trkpt lat="46.532489" lon="11.658461">
        <ele>1757.2</ele>
      </trkpt>
      <trkpt lat="46.532463" lon="11.658526">
        <ele>1756.4</ele>
      </trkpt>
      <trkpt lat="46.532432" lon="11.658614">
        <ele>1755.9</ele>
      </trkpt>
      <trkpt lat="46.532413" lon="11.658688">
        <ele>1755.9</ele>
      </trkpt>
      <trkpt lat="46.532408" lon="11.658758">
        <ele>1755.6</ele>
      </trkpt>
      <trkpt lat="46.532402" lon="11.658827">
        <ele>1755.1</ele>
      </trkpt>
      <trkpt lat="46.532392" lon="11.658876">
        <ele>1754.1</ele>
      </trkpt>
      <trkpt lat="46.53238" lon="11.659093">
        <ele>1751.7</ele>
      </trkpt>
      <trkpt lat="46.532358" lon="11.659273">
        <ele>1750.2</ele>
      </trkpt>
      <trkpt lat="46.532344" lon="11.659383">
        <ele>1749.2</ele>
      </trkpt>
      <trkpt lat="46.532308" lon="11.659503">
        <ele>1747.5</ele>
      </trkpt>
      <trkpt lat="46.5323" lon="11.65959">
        <ele>1746.4</ele>
      </trkpt>
      <trkpt lat="46.532267" lon="11.659626">
        <ele>1745.3</ele>
      </trkpt>
      <trkpt lat="46.532219" lon="11.659755">
        <ele>1744.3</ele>
      </trkpt>
      <trkpt lat="46.532194" lon="11.659836">
        <ele>1744.2</ele>
      </trkpt>
      <trkpt lat="46.532201" lon="11.659985">
        <ele>1743.9</ele>
      </trkpt>
      <trkpt lat="46.532208" lon="11.660114">
        <ele>1742.0</ele>
      </trkpt>
      <trkpt lat="46.532211" lon="11.660259">
        <ele>1740.9</ele>
      </trkpt>
      <trkpt lat="46.532203" lon="11.660427">
        <ele>1739.6</ele>
      </trkpt>
      <trkpt lat="46.532161" lon="11.660574">
        <ele>1738.4</ele>
      </trkpt>
      <trkpt lat="46.532107" lon="11.660692">
        <ele>1736.9</ele>
      </trkpt>
      <trkpt lat="46.532057" lon="11.66083">
        <ele>1736.1</ele>
      </trkpt>
      <trkpt lat="46.532037" lon="11.660859">
        <ele>1735.7</ele>
      </trkpt>
      <trkpt lat="46.532015" lon="11.660884">
        <ele>1734.9</ele>
      </trkpt>
      <trkpt lat="46.532018" lon="11.660923">
        <ele>1734.6</ele>
      </trkpt>
      <trkpt lat="46.53204" lon="11.660948">
        <ele>1734.8</ele>
      </trkpt>
      <trkpt lat="46.53205" lon="11.660979">
        <ele>1734.2</ele>
      </trkpt>
      <trkpt lat="46.532074" lon="11.661227">
        <ele>1730.7</ele>
      </trkpt>
      <trkpt lat="46.532074" lon="11.661282">
        <ele>1730.4</ele>
      </trkpt>
      <trkpt lat="46.532062" lon="11.661328">
        <ele>1730.1</ele>
      </trkpt>
      <trkpt lat="46.532028" lon="11.661361">
        <ele>1728.9</ele>
      </trkpt>
      <trkpt lat="46.53201" lon="11.661356">
        <ele>1728.3</ele>
      </trkpt>
      <trkpt lat="46.531994" lon="11.661372">
        <ele>1727.9</ele>
      </trkpt>
      <trkpt lat="46.531993" lon="11.661402">
        <ele>1727.9</ele>
      </trkpt>
      <trkpt lat="46.53201" lon="11.661455">
        <ele>1728.0</ele>
      </trkpt>
      <trkpt lat="46.532017" lon="11.661528">
        <ele>1727.1</ele>
      </trkpt>
      <trkpt lat="46.531998" lon="11.661604">
        <ele>1725.5</ele>
      </trkpt>
      <trkpt lat="46.531993" lon="11.661685">
        <ele>1725.1</ele>
      </trkpt>
      <trkpt lat="46.531996" lon="11.661728">
        <ele>1724.3</ele>
      </trkpt>
      <trkpt lat="46.532005" lon="11.661747">
        <ele>1724.1</ele>
      </trkpt>
      <trkpt lat="46.532083" lon="11.661802">
        <ele>1723.6</ele>
      </trkpt>
      <trkpt lat="46.532143" lon="11.661898">
        <ele>1721.1</ele>
      </trkpt>
      <trkpt lat="46.532211" lon="11.662">
        <ele>1720.2</ele>
      </trkpt>
      <trkpt lat="46.532273" lon="11.662094">
        <ele>1719.9</ele>
      </trkpt>
      <trkpt lat="46.532376" lon="11.662158">
        <ele>1718.3</ele>
      </trkpt>
      <trkpt lat="46.532459" lon="11.662202">
        <ele>1717.3</ele>
      </trkpt>
      <trkpt lat="46.532593" lon="11.662491">
        <ele>1716.1</ele>
      </trkpt>
      <trkpt lat="46.532597" lon="11.662538">
        <ele>1716.6</ele>
      </trkpt>
      <trkpt lat="46.532581" lon="11.662555">
        <ele>1716.1</ele>
      </trkpt>
      <trkpt lat="46.53233" lon="11.662835">
        <ele>1711.1</ele>
      </trkpt>
      <trkpt lat="46.532295" lon="11.662898">
        <ele>1710.1</ele>
      </trkpt>
      <trkpt lat="46.532259" lon="11.663013">
        <ele>1708.4</ele>
      </trkpt>
      <trkpt lat="46.532241" lon="11.663127">
        <ele>1706.6</ele>
      </trkpt>
      <trkpt lat="46.532218" lon="11.663214">
        <ele>1705.2</ele>
      </trkpt>
      <trkpt lat="46.532178" lon="11.663289">
        <ele>1704.3</ele>
      </trkpt>
      <trkpt lat="46.532099" lon="11.66345">
        <ele>1703.2</ele>
      </trkpt>
      <trkpt lat="46.532052" lon="11.663598">
        <ele>1702.1</ele>
      </trkpt>
      <trkpt lat="46.532009" lon="11.663772">
        <ele>1701.1</ele>
      </trkpt>
      <trkpt lat="46.531993" lon="11.6639">
        <ele>1700.7</ele>
      </trkpt>
      <trkpt lat="46.531989" lon="11.664">
        <ele>1700.3</ele>
      </trkpt>
      <trkpt lat="46.531985" lon="11.664294">
        <ele>1699.7</ele>
      </trkpt>
      <trkpt lat="46.531993" lon="11.664428">
        <ele>1699.6</ele>
      </trkpt>
      <trkpt lat="46.532046" lon="11.664583">
        <ele>1699.8</ele>
      </trkpt>
      <trkpt lat="46.532036" lon="11.664689">
        <ele>1699.2</ele>
      </trkpt>
      <trkpt lat="46.531995" lon="11.665087">
        <ele>1696.9</ele>
      </trkpt>
      <trkpt lat="46.531954" lon="11.665485">
        <ele>1694.1</ele>
      </trkpt>
      <trkpt lat="46.531907" lon="11.665938">
        <ele>1691.1</ele>
      </trkpt>
      <trkpt lat="46.53186" lon="11.66639">
        <ele>1688.7</ele>
      </trkpt>
      <trkpt lat="46.53184" lon="11.666729">
        <ele>1686.9</ele>
      </trkpt>
      <trkpt lat="46.531821" lon="11.667068">
        <ele>1685.3</ele>
      </trkpt>
      <trkpt lat="46.531789" lon="11.667362">
        <ele>1684.2</ele>
      </trkpt>
      <trkpt lat="46.531726" lon="11.667594">
        <ele>1683.6</ele>
      </trkpt>
      <trkpt lat="46.531652" lon="11.667765">
        <ele>1683.3</ele>
      </trkpt>
      <trkpt lat="46.531636" lon="11.667818">
        <ele>1683.2</ele>
      </trkpt>
      <trkpt lat="46.53163" lon="11.667892">
        <ele>1682.9</ele>
      </trkpt>
      <trkpt lat="46.531644" lon="11.667976">
        <ele>1682.7</ele>
      </trkpt>
      <trkpt lat="46.531703" lon="11.66818">
        <ele>1681.3</ele>
      </trkpt>
      <trkpt lat="46.531731" lon="11.668376">
        <ele>1679.8</ele>
      </trkpt>
      <trkpt lat="46.531736" lon="11.668529">
        <ele>1678.6</ele>
      </trkpt>
      <trkpt lat="46.53173" lon="11.668713">
        <ele>1677.4</ele>
      </trkpt>
      <trkpt lat="46.531678" lon="11.668947">
        <ele>1675.7</ele>
      </trkpt>
      <trkpt lat="46.531627" lon="11.669061">
        <ele>1675.0</ele>
      </trkpt>
      <trkpt lat="46.53154" lon="11.6692">
        <ele>1674.1</ele>
      </trkpt>
      <trkpt lat="46.531457" lon="11.669333">
        <ele>1673.5</ele>
      </trkpt>
      <trkpt lat="46.531387" lon="11.669468">
        <ele>1673.3</ele>
      </trkpt>
      <trkpt lat="46.53133" lon="11.669594">
        <ele>1671.8</ele>
      </trkpt>
      <trkpt lat="46.531252" lon="11.669821">
        <ele>1673.0</ele>
      </trkpt>
      <trkpt lat="46.531234" lon="11.669899">
        <ele>1673.4</ele>
      </trkpt>
      <trkpt lat="46.531219" lon="11.670027">
        <ele>1673.8</ele>
      </trkpt>
      <trkpt lat="46.531217" lon="11.670153">
        <ele>1674.5</ele>
      </trkpt>
      <trkpt lat="46.531214" lon="11.670285">
        <ele>1675.3</ele>
      </trkpt>
      <trkpt lat="46.531225" lon="11.670472">
        <ele>1676.2</ele>
      </trkpt>
      <trkpt lat="46.531248" lon="11.670686">
        <ele>1676.9</ele>
      </trkpt>
      <trkpt lat="46.53128" lon="11.67089">
        <ele>1677.6</ele>
      </trkpt>
      <trkpt lat="46.53132" lon="11.671119">
        <ele>1678.9</ele>
        <name>Saltria, Kastelruth - Castelrotto, Salten-Schlern - Salto-Sciliar</name>
        <extensions>
          <oa:Extension>
            <oa:mapZoom>18</oa:mapZoom>
          </oa:Extension>
        </extensions>
      </trkpt>
      <trkpt lat="46.515406" lon="11.684711">
        <ele>2097.57079</ele>
      </trkpt>
      <trkpt lat="46.531338" lon="11.671229">
        <ele>1679.3</ele>
        <name>Saltria, Kastelruth - Castelrotto, Salten-Schlern - Salto-Sciliar</name>
        <extensions>
          <oa:Extension>
            <oa:mapZoom>18</oa:mapZoom>
          </oa:Extension>
        </extensions>
      </trkpt>
      <trkpt lat="46.531323" lon="11.671133">
        <ele>1679.0</ele>
      </trkpt>
      <trkpt lat="46.53128" lon="11.67089">
        <ele>1677.6</ele>
      </trkpt>
      <trkpt lat="46.531248" lon="11.670686">
        <ele>1676.9</ele>
      </trkpt>
      <trkpt lat="46.531225" lon="11.670472">
        <ele>1676.2</ele>
      </trkpt>
      <trkpt lat="46.531214" lon="11.670285">
        <ele>1675.3</ele>
      </trkpt>
      <trkpt lat="46.531217" lon="11.670153">
        <ele>1674.5</ele>
      </trkpt>
      <trkpt lat="46.531219" lon="11.670027">
        <ele>1673.8</ele>
      </trkpt>
      <trkpt lat="46.531234" lon="11.669899">
        <ele>1673.4</ele>
      </trkpt>
      <trkpt lat="46.531252" lon="11.669821">
        <ele>1673.0</ele>
      </trkpt>
      <trkpt lat="46.53133" lon="11.669594">
        <ele>1671.8</ele>
      </trkpt>
      <trkpt lat="46.531387" lon="11.669468">
        <ele>1673.3</ele>
      </trkpt>
      <trkpt lat="46.531457" lon="11.669333">
        <ele>1673.5</ele>
      </trkpt>
      <trkpt lat="46.53154" lon="11.6692">
        <ele>1674.1</ele>
      </trkpt>
      <trkpt lat="46.531627" lon="11.669061">
        <ele>1675.0</ele>
      </trkpt>
      <trkpt lat="46.531675" lon="11.669167">
        <ele>1674.7</ele>
      </trkpt>
      <trkpt lat="46.531751" lon="11.669095">
        <ele>1675.2</ele>
      </trkpt>
      <trkpt lat="46.531822" lon="11.669022">
        <ele>1675.8</ele>
      </trkpt>
      <trkpt lat="46.531854" lon="11.668989">
        <ele>1675.8</ele>
      </trkpt>
      <trkpt lat="46.531893" lon="11.66898">
        <ele>1675.8</ele>
        <name>Saltria, Kastelruth - Castelrotto, Salten-Schlern - Salto-Sciliar</name>
        <extensions>
          <oa:Extension>
            <oa:mapZoom>18</oa:mapZoom>
          </oa:Extension>
        </extensions>
      </trkpt>
      <trkpt lat="46.531995" lon="11.668956">
        <ele>1676.0</ele>
      </trkpt>
      <trkpt lat="46.532117" lon="11.668944">
        <ele>1676.3</ele>
      </trkpt>
      <trkpt lat="46.532199" lon="11.668936">
        <ele>1676.4</ele>
      </trkpt>
      <trkpt lat="46.532252" lon="11.668931">
        <ele>1676.9</ele>
      </trkpt>
      <trkpt lat="46.532318" lon="11.668974">
        <ele>1677.2</ele>
      </trkpt>
      <trkpt lat="46.532562" lon="11.66934">
        <ele>1679.7</ele>
      </trkpt>
      <trkpt lat="46.532627" lon="11.669402">
        <ele>1679.9</ele>
      </trkpt>
      <trkpt lat="46.532666" lon="11.669486">
        <ele>1679.5</ele>
      </trkpt>
      <trkpt lat="46.532689" lon="11.669441">
        <ele>1679.9</ele>
      </trkpt>
      <trkpt lat="46.532721" lon="11.669424">
        <ele>1680.1</ele>
      </trkpt>
      <trkpt lat="46.532814" lon="11.669462">
        <ele>1680.6</ele>
      </trkpt>
      <trkpt lat="46.532844" lon="11.669457">
        <ele>1680.9</ele>
      </trkpt>
      <trkpt lat="46.532978" lon="11.669307">
        <ele>1681.7</ele>
      </trkpt>
      <trkpt lat="46.533096" lon="11.669335">
        <ele>1681.3</ele>
      </trkpt>
      <trkpt lat="46.533148" lon="11.669345">
        <ele>1681.2</ele>
      </trkpt>
      <trkpt lat="46.53326" lon="11.669383">
        <ele>1682.1</ele>
      </trkpt>
      <trkpt lat="46.533357" lon="11.669295">
        <ele>1684.3</ele>
      </trkpt>
      <trkpt lat="46.533497" lon="11.669076">
        <ele>1687.8</ele>
      </trkpt>
      <trkpt lat="46.533877" lon="11.668729">
        <ele>1690.3</ele>
      </trkpt>
      <trkpt lat="46.534163" lon="11.668625">
        <ele>1693.9</ele>
      </trkpt>
      <trkpt lat="46.534359" lon="11.668754">
        <ele>1693.6</ele>
      </trkpt>
      <trkpt lat="46.534409" lon="11.668751">
        <ele>1694.1</ele>
      </trkpt>
      <trkpt lat="46.53455" lon="11.668725">
        <ele>1696.2</ele>
      </trkpt>
      <trkpt lat="46.534662" lon="11.668665">
        <ele>1699.1</ele>
      </trkpt>
      <trkpt lat="46.534795" lon="11.668638">
        <ele>1700.7</ele>
      </trkpt>
      <trkpt lat="46.53486" lon="11.668599">
        <ele>1701.1</ele>
      </trkpt>
      <trkpt lat="46.535004" lon="11.668513">
        <ele>1701.4</ele>
      </trkpt>
      <trkpt lat="46.535289" lon="11.668526">
        <ele>1697.8</ele>
      </trkpt>
      <trkpt lat="46.535407" lon="11.668391">
        <ele>1695.3</ele>
      </trkpt>
      <trkpt lat="46.535463" lon="11.668279">
        <ele>1696.7</ele>
      </trkpt>
      <trkpt lat="46.53553" lon="11.668262">
        <ele>1696.8</ele>
      </trkpt>
      <trkpt lat="46.535617" lon="11.668302">
        <ele>1696.4</ele>
      </trkpt>
      <trkpt lat="46.535653" lon="11.668327">
        <ele>1697.7</ele>
      </trkpt>
      <trkpt lat="46.535699" lon="11.668258">
        <ele>1699.0</ele>
      </trkpt>
      <trkpt lat="46.535726" lon="11.668254">
        <ele>1699.6</ele>
      </trkpt>
      <trkpt lat="46.535833" lon="11.668161">
        <ele>1703.6</ele>
      </trkpt>
      <trkpt lat="46.535957" lon="11.668189">
        <ele>1705.1</ele>
      </trkpt>
      <trkpt lat="46.53608" lon="11.668313">
        <ele>1708.2</ele>
      </trkpt>
      <trkpt lat="46.536429" lon="11.668599">
        <ele>1716.7</ele>
      </trkpt>
      <trkpt lat="46.53653" lon="11.668593">
        <ele>1719.1</ele>
      </trkpt>
      <trkpt lat="46.536608" lon="11.668606">
        <ele>1721.3</ele>
      </trkpt>
      <trkpt lat="46.536955" lon="11.668477">
        <ele>1731.1</ele>
      </trkpt>
      <trkpt lat="46.537103" lon="11.668573">
        <ele>1734.2</ele>
      </trkpt>
      <trkpt lat="46.537273" lon="11.668588">
        <ele>1738.6</ele>
      </trkpt>
      <trkpt lat="46.537463" lon="11.66853">
        <ele>1743.1</ele>
      </trkpt>
      <trkpt lat="46.537563" lon="11.668553">
        <ele>1745.0</ele>
      </trkpt>
      <trkpt lat="46.537688" lon="11.668478">
        <ele>1747.4</ele>
      </trkpt>
      <trkpt lat="46.537983" lon="11.668404">
        <ele>1753.7</ele>
      </trkpt>
      <trkpt lat="46.538074" lon="11.668335">
        <ele>1755.6</ele>
      </trkpt>
      <trkpt lat="46.538252" lon="11.66836">
        <ele>1759.3</ele>
      </trkpt>
      <trkpt lat="46.538374" lon="11.668409">
        <ele>1761.4</ele>
      </trkpt>
      <trkpt lat="46.538538" lon="11.668425">
        <ele>1763.6</ele>
      </trkpt>
      <trkpt lat="46.538627" lon="11.668499">
        <ele>1765.0</ele>
      </trkpt>
      <trkpt lat="46.538704" lon="11.668536">
        <ele>1766.3</ele>
      </trkpt>
      <trkpt lat="46.538954" lon="11.66862">
        <ele>1770.9</ele>
      </trkpt>
      <trkpt lat="46.539172" lon="11.668468">
        <ele>1776.5</ele>
      </trkpt>
      <trkpt lat="46.539258" lon="11.668463">
        <ele>1777.6</ele>
      </trkpt>
      <trkpt lat="46.539325" lon="11.66842">
        <ele>1778.9</ele>
      </trkpt>
      <trkpt lat="46.539378" lon="11.668458">
        <ele>1779.9</ele>
      </trkpt>
      <trkpt lat="46.53943" lon="11.668444">
        <ele>1781.1</ele>
      </trkpt>
      <trkpt lat="46.539445" lon="11.668492">
        <ele>1781.3</ele>
      </trkpt>
      <trkpt lat="46.539541" lon="11.668506">
        <ele>1783.5</ele>
      </trkpt>
      <trkpt lat="46.539689" lon="11.668568">
        <ele>1786.4</ele>
      </trkpt>
      <trkpt lat="46.539785" lon="11.668664">
        <ele>1788.0</ele>
      </trkpt>
      <trkpt lat="46.539881" lon="11.668721">
        <ele>1789.8</ele>
      </trkpt>
      <trkpt lat="46.540239" lon="11.668703">
        <ele>1795.2</ele>
      </trkpt>
      <trkpt lat="46.540438" lon="11.668693">
        <ele>1799.5</ele>
      </trkpt>
      <trkpt lat="46.540622" lon="11.668711">
        <ele>1802.5</ele>
      </trkpt>
      <trkpt lat="46.540828" lon="11.668611">
        <ele>1806.3</ele>
      </trkpt>
      <trkpt lat="46.540881" lon="11.668616">
        <ele>1807.1</ele>
      </trkpt>
      <trkpt lat="46.541011" lon="11.668571">
        <ele>1809.2</ele>
      </trkpt>
      <trkpt lat="46.541197" lon="11.668444">
        <ele>1811.5</ele>
      </trkpt>
      <trkpt lat="46.541296" lon="11.668334">
        <ele>1813.0</ele>
      </trkpt>
      <trkpt lat="46.541412" lon="11.668318">
        <ele>1814.4</ele>
      </trkpt>
      <trkpt lat="46.541501" lon="11.668265">
        <ele>1815.8</ele>
      </trkpt>
      <trkpt lat="46.54162" lon="11.668275">
        <ele>1817.9</ele>
      </trkpt>
      <trkpt lat="46.541883" lon="11.668174">
        <ele>1822.4</ele>
      </trkpt>
      <trkpt lat="46.541953" lon="11.668109">
        <ele>1823.8</ele>
      </trkpt>
      <trkpt lat="46.542003" lon="11.668062">
        <ele>1824.7</ele>
      </trkpt>
      <trkpt lat="46.54207" lon="11.668038">
        <ele>1826.1</ele>
      </trkpt>
      <trkpt lat="46.542157" lon="11.667973">
        <ele>1828.1</ele>
      </trkpt>
      <trkpt lat="46.542274" lon="11.667931">
        <ele>1830.4</ele>
      </trkpt>
      <trkpt lat="46.54251" lon="11.667814">
        <ele>1834.8</ele>
      </trkpt>
      <trkpt lat="46.542746" lon="11.667697">
        <ele>1838.9</ele>
      </trkpt>
      <trkpt lat="46.543144" lon="11.66759">
        <ele>1844.2</ele>
      </trkpt>
      <trkpt lat="46.543541" lon="11.667483">
        <ele>1847.9</ele>
      </trkpt>
      <trkpt lat="46.543794" lon="11.667592">
        <ele>1849.7</ele>
      </trkpt>
      <trkpt lat="46.544047" lon="11.667702">
        <ele>1853.1</ele>
      </trkpt>
      <trkpt lat="46.544149" lon="11.667765">
        <ele>1854.0</ele>
      </trkpt>
      <trkpt lat="46.544504" lon="11.667944">
        <ele>1854.4</ele>
      </trkpt>
      <trkpt lat="46.544882" lon="11.668201">
        <ele>1853.5</ele>
      </trkpt>
      <trkpt lat="46.545166" lon="11.66837">
        <ele>1853.3</ele>
      </trkpt>
      <trkpt lat="46.545327" lon="11.668423">
        <ele>1853.9</ele>
      </trkpt>
      <trkpt lat="46.545532" lon="11.668454">
        <ele>1852.9</ele>
      </trkpt>
      <trkpt lat="46.545679" lon="11.668452">
        <ele>1851.7</ele>
      </trkpt>
      <trkpt lat="46.545896" lon="11.668424">
        <ele>1851.2</ele>
      </trkpt>
      <trkpt lat="46.545907" lon="11.668423">
        <ele>1851.2</ele>
      </trkpt>
      <trkpt lat="46.545992" lon="11.668404">
        <ele>1851.3</ele>
      </trkpt>
      <trkpt lat="46.546068" lon="11.668383">
        <ele>1851.3</ele>
      </trkpt>
      <trkpt lat="46.546102" lon="11.668361">
        <ele>1851.5</ele>
      </trkpt>
      <trkpt lat="46.546223" lon="11.668241">
        <ele>1851.8</ele>
      </trkpt>
      <trkpt lat="46.546392" lon="11.668038">
        <ele>1852.7</ele>
      </trkpt>
      <trkpt lat="46.54653" lon="11.66792">
        <ele>1853.1</ele>
      </trkpt>
      <trkpt lat="46.546658" lon="11.667861">
        <ele>1853.5</ele>
      </trkpt>
      <trkpt lat="46.546703" lon="11.667852">
        <ele>1853.3</ele>
      </trkpt>
      <trkpt lat="46.546749" lon="11.667862">
        <ele>1853.0</ele>
      </trkpt>
      <trkpt lat="46.546847" lon="11.667906">
        <ele>1851.4</ele>
      </trkpt>
      <trkpt lat="46.54694" lon="11.667938">
        <ele>1850.4</ele>
      </trkpt>
      <trkpt lat="46.547052" lon="11.667966">
        <ele>1849.7</ele>
      </trkpt>
      <trkpt lat="46.547246" lon="11.668006">
        <ele>1849.3</ele>
      </trkpt>
      <trkpt lat="46.547402" lon="11.66805">
        <ele>1848.8</ele>
      </trkpt>
      <trkpt lat="46.547439" lon="11.668053">
        <ele>1849.0</ele>
      </trkpt>
      <trkpt lat="46.547557" lon="11.668005">
        <ele>1849.6</ele>
      </trkpt>
      <trkpt lat="46.547674" lon="11.667948">
        <ele>1849.9</ele>
      </trkpt>
      <trkpt lat="46.547754" lon="11.667909">
        <ele>1849.7</ele>
      </trkpt>
      <trkpt lat="46.547838" lon="11.667835">
        <ele>1849.8</ele>
      </trkpt>
      <trkpt lat="46.548115" lon="11.667534">
        <ele>1850.5</ele>
      </trkpt>
      <trkpt lat="46.548214" lon="11.667477">
        <ele>1850.8</ele>
      </trkpt>
      <trkpt lat="46.548313" lon="11.667364">
        <ele>1852.5</ele>
      </trkpt>
      <trkpt lat="46.54837" lon="11.667281">
        <ele>1853.6</ele>
      </trkpt>
      <trkpt lat="46.548377" lon="11.667141">
        <ele>1853.5</ele>
      </trkpt>
      <trkpt lat="46.548525" lon="11.66661">
        <ele>1854.1</ele>
      </trkpt>
      <trkpt lat="46.548723" lon="11.666206">
        <ele>1852.9</ele>
      </trkpt>
      <trkpt lat="46.54892" lon="11.665802">
        <ele>1849.9</ele>
      </trkpt>
      <trkpt lat="46.549223" lon="11.665405">
        <ele>1846.7</ele>
      </trkpt>
      <trkpt lat="46.549526" lon="11.665008">
        <ele>1841.5</ele>
      </trkpt>
      <trkpt lat="46.549806" lon="11.6648">
        <ele>1838.3</ele>
      </trkpt>
      <trkpt lat="46.550086" lon="11.664593">
        <ele>1836.4</ele>
      </trkpt>
      <trkpt lat="46.550311" lon="11.664576">
        <ele>1831.6</ele>
      </trkpt>
      <trkpt lat="46.550536" lon="11.664558">
        <ele>1824.0</ele>
      </trkpt>
      <trkpt lat="46.550752" lon="11.66461">
        <ele>1816.4</ele>
      </trkpt>
      <trkpt lat="46.550764" lon="11.664537">
        <ele>1814.9</ele>
      </trkpt>
      <trkpt lat="46.550771" lon="11.664418">
        <ele>1813.6</ele>
      </trkpt>
      <trkpt lat="46.550803" lon="11.664322">
        <ele>1812.0</ele>
      </trkpt>
      <trkpt lat="46.550861" lon="11.66427">
        <ele>1810.2</ele>
      </trkpt>
      <trkpt lat="46.550931" lon="11.66428">
        <ele>1809.3</ele>
      </trkpt>
      <trkpt lat="46.551031" lon="11.664349">
        <ele>1808.3</ele>
      </trkpt>
      <trkpt lat="46.551048" lon="11.664378">
        <ele>1808.1</ele>
      </trkpt>
      <trkpt lat="46.551053" lon="11.664416">
        <ele>1807.7</ele>
      </trkpt>
      <trkpt lat="46.551053" lon="11.664494">
        <ele>1808.2</ele>
      </trkpt>
      <trkpt lat="46.551049" lon="11.664565">
        <ele>1808.8</ele>
      </trkpt>
      <trkpt lat="46.55106" lon="11.664634">
        <ele>1809.1</ele>
      </trkpt>
      <trkpt lat="46.551135" lon="11.664798">
        <ele>1810.7</ele>
      </trkpt>
      <trkpt lat="46.551177" lon="11.664826">
        <ele>1812.3</ele>
      </trkpt>
      <trkpt lat="46.551224" lon="11.664804">
        <ele>1813.8</ele>
      </trkpt>
      <trkpt lat="46.55133" lon="11.664668">
        <ele>1817.5</ele>
      </trkpt>
      <trkpt lat="46.551625" lon="11.664361">
        <ele>1825.1</ele>
      </trkpt>
      <trkpt lat="46.551686" lon="11.664279">
        <ele>1827.6</ele>
      </trkpt>
      <trkpt lat="46.551718" lon="11.664159">
        <ele>1829.8</ele>
      </trkpt>
      <trkpt lat="46.551788" lon="11.664026">
        <ele>1832.5</ele>
      </trkpt>
      <trkpt lat="46.551851" lon="11.663988">
        <ele>1833.1</ele>
      </trkpt>
      <trkpt lat="46.551884" lon="11.663968">
        <ele>1833.5</ele>
      </trkpt>
      <trkpt lat="46.551988" lon="11.663938">
        <ele>1834.7</ele>
      </trkpt>
      <trkpt lat="46.552124" lon="11.663783">
        <ele>1835.5</ele>
      </trkpt>
      <trkpt lat="46.552319" lon="11.663635">
        <ele>1836.9</ele>
      </trkpt>
      <trkpt lat="46.552488" lon="11.663564">
        <ele>1840.8</ele>
      </trkpt>
      <trkpt lat="46.552734" lon="11.663499">
        <ele>1845.5</ele>
      </trkpt>
      <trkpt lat="46.553114" lon="11.663284">
        <ele>1852.6</ele>
      </trkpt>
      <trkpt lat="46.553308" lon="11.66323">
        <ele>1855.2</ele>
      </trkpt>
      <trkpt lat="46.553562" lon="11.663111">
        <ele>1857.4</ele>
      </trkpt>
      <trkpt lat="46.553628" lon="11.663266">
        <ele>1856.9</ele>
      </trkpt>
      <trkpt lat="46.55364" lon="11.663283">
        <ele>1856.8</ele>
        <name>Landschaftsschutzgebiet Seiser Alm – Zona di Tutela Paesaggistica dell&apos;Alpe di Siusi (Alpe di Siusi - Seiser Alm), Kastelruth - Castelrotto, Salten-Schlern - Salto-Sciliar</name>
        <extensions>
          <oa:Extension>
            <oa:mapZoom>17</oa:mapZoom>
          </oa:Extension>
        </extensions>
      </trkpt>
      <trkpt lat="46.557813" lon="11.663578">
        <ele>2002.6</ele>
        <name>Landschaftsschutzgebiet Seiser Alm – Zona di Tutela Paesaggistica dell&apos;Alpe di Siusi (Alpe di Siusi - Seiser Alm), Kastelruth - Castelrotto, Salten-Schlern - Salto-Sciliar</name>
        <extensions>
          <oa:Extension>
            <oa:mapZoom>17</oa:mapZoom>
          </oa:Extension>
        </extensions>
      </trkpt>
      <trkpt lat="46.557824" lon="11.663578">
        <ele>2002.7</ele>
      </trkpt>
      <trkpt lat="46.557842" lon="11.663599">
        <ele>2003.0</ele>
      </trkpt>
      <trkpt lat="46.557851" lon="11.663628">
        <ele>2003.1</ele>
      </trkpt>
      <trkpt lat="46.557858" lon="11.663666">
        <ele>2003.1</ele>
      </trkpt>
      <trkpt lat="46.557861" lon="11.663742">
        <ele>2002.8</ele>
      </trkpt>
      <trkpt lat="46.557844" lon="11.663824">
        <ele>2001.8</ele>
      </trkpt>
      <trkpt lat="46.557811" lon="11.663903">
        <ele>2001.2</ele>
      </trkpt>
      <trkpt lat="46.557754" lon="11.664094">
        <ele>2000.3</ele>
      </trkpt>
      <trkpt lat="46.557753" lon="11.664136">
        <ele>2000.2</ele>
      </trkpt>
      <trkpt lat="46.557752" lon="11.664226">
        <ele>2000.0</ele>
      </trkpt>
      <trkpt lat="46.557766" lon="11.664332">
        <ele>2000.1</ele>
      </trkpt>
      <trkpt lat="46.557838" lon="11.66451">
        <ele>2000.8</ele>
        <name>6;9, Kastelruth - Castelrotto, Salten-Schlern - Salto-Sciliar</name>
        <extensions>
          <oa:Extension>
            <oa:mapZoom>17</oa:mapZoom>
          </oa:Extension>
        </extensions>
      </trkpt>
    </trkseg>
  </trk>
</gpx>