<?xml version="1.0" encoding="UTF-8" standalone="yes"?>
<gpx version="1.1" creator="outdooractive - http://www.outdooractive.com" xmlns="http://www.topografix.com/GPX/1/1" xmlns:oa="http://www.outdooractive.com/GPX/Extensions/1" xmlns:xsi="http://www.w3.org/2001/XMLSchema-instance" xsi:schemaLocation="http://www.topografix.com/GPX/1/1 http://www.topografix.com/GPX/1/1/gpx.xsd http://www.outdooractive.com/GPX/Extensions/1 https://www.outdooractive.com/schema/gpx_extensions.xsd">
  <metadata>
    <name>Hike from Urtijëi (St. Ulrich, Ortisei) to Secëda (Monte Seceda) via Lech da Rijeda and Lech da Iman</name>
    <author>
      <name>hwang leo - Community</name>
    </author>
    <link href="https://www.outdooractive.com/r/351853833"/>
    <time>2026-09-04T01:14:49.953Z</time>
    <extensions>
      <oa:oaCategory>hikingTourTrail</oa:oaCategory>
    </extensions>
  </metadata>
  <trk>
    <name>Hike from Urtijëi (St. Ulrich, Ortisei) to Secëda (Monte Seceda) via Lech da Rijeda and Lech da Iman</name>
    <type>hikingTourTrail</type>
    <trkseg>
      <trkpt lat="46.576378" lon="11.675055">
        <ele>1257.90192</ele>
        <name>Urtijëi - St. Ulrich - Ortisei, Urtijëi - St. Ulrich in Gröden - Ortisei, Salten-Schlern - Salto-Sciliar</name>
        <extensions>
          <oa:Extension>
            <oa:mapZoom>17</oa:mapZoom>
          </oa:Extension>
        </extensions>
      </trkpt>
      <trkpt lat="46.589836" lon="11.702242">
        <ele>1726.16082</ele>
      </trkpt>
      <trkpt lat="46.597863" lon="11.724404">
        <ele>2461.1</ele>
        <name>Santa Cristina Gherdëina - St. Christina in Gröden - Santa Cristina Valgardena, Salten-Schlern - Salto-Sciliar</name>
        <extensions>
          <oa:Extension>
            <oa:mapZoom>17</oa:mapZoom>
          </oa:Extension>
        </extensions>
      </trkpt>
      <trkpt lat="46.597838" lon="11.724423">
        <ele>2458.8</ele>
      </trkpt>
      <trkpt lat="46.597791" lon="11.724455">
        <ele>2455.3</ele>
      </trkpt>
      <trkpt lat="46.597928" lon="11.724778">
        <ele>2453.8</ele>
      </trkpt>
      <trkpt lat="46.598001" lon="11.72476">
        <ele>2455.3</ele>
      </trkpt>
      <trkpt lat="46.598237" lon="11.724652">
        <ele>2460.6</ele>
      </trkpt>
      <trkpt lat="46.598292" lon="11.724612">
        <ele>2462.2</ele>
      </trkpt>
      <trkpt lat="46.598357" lon="11.724536">
        <ele>2464.6</ele>
      </trkpt>
      <trkpt lat="46.598418" lon="11.724442">
        <ele>2467.0</ele>
      </trkpt>
      <trkpt lat="46.598477" lon="11.724319">
        <ele>2468.6</ele>
      </trkpt>
      <trkpt lat="46.598521" lon="11.724265">
        <ele>2469.3</ele>
      </trkpt>
      <trkpt lat="46.598574" lon="11.724218">
        <ele>2470.1</ele>
      </trkpt>
      <trkpt lat="46.598609" lon="11.724193">
        <ele>2470.8</ele>
      </trkpt>
      <trkpt lat="46.598653" lon="11.724171">
        <ele>2471.8</ele>
      </trkpt>
      <trkpt lat="46.598767" lon="11.724139">
        <ele>2473.4</ele>
      </trkpt>
      <trkpt lat="46.598835" lon="11.724134">
        <ele>2474.7</ele>
      </trkpt>
      <trkpt lat="46.598893" lon="11.724146">
        <ele>2475.0</ele>
      </trkpt>
      <trkpt lat="46.59896" lon="11.724178">
        <ele>2477.1</ele>
      </trkpt>
      <trkpt lat="46.599066" lon="11.724238">
        <ele>2479.4</ele>
      </trkpt>
      <trkpt lat="46.599211" lon="11.724345">
        <ele>2482.2</ele>
      </trkpt>
      <trkpt lat="46.599402" lon="11.724479">
        <ele>2485.0</ele>
      </trkpt>
      <trkpt lat="46.599539" lon="11.724653">
        <ele>2487.6</ele>
      </trkpt>
      <trkpt lat="46.59971" lon="11.724861">
        <ele>2494.0</ele>
      </trkpt>
      <trkpt lat="46.59987" lon="11.725018">
        <ele>2497.9</ele>
      </trkpt>
      <trkpt lat="46.600116" lon="11.725294">
        <ele>2503.6</ele>
      </trkpt>
      <trkpt lat="46.600323" lon="11.725538">
        <ele>2509.5</ele>
      </trkpt>
      <trkpt lat="46.600403" lon="11.725576">
        <ele>2511.7</ele>
      </trkpt>
      <trkpt lat="46.60054" lon="11.725617">
        <ele>2514.9</ele>
      </trkpt>
      <trkpt lat="46.600549" lon="11.725696">
        <ele>2516.2</ele>
      </trkpt>
      <trkpt lat="46.600577" lon="11.725698">
        <ele>2516.5</ele>
      </trkpt>
      <trkpt lat="46.600614" lon="11.725704">
        <ele>2517.0</ele>
      </trkpt>
      <trkpt lat="46.600631" lon="11.72572">
        <ele>2517.1</ele>
      </trkpt>
      <trkpt lat="46.60064" lon="11.725747">
        <ele>2517.2</ele>
        <name>Secëda - Monte Seceda</name>
        <extensions>
          <oa:Extension>
            <oa:mapZoom>17</oa:mapZoom>
          </oa:Extension>
        </extensions>
      </trkpt>
      <trkpt lat="46.600643" lon="11.725754">
        <ele>2517.2</ele>
      </trkpt>
      <trkpt lat="46.600645" lon="11.725787">
        <ele>2517.0</ele>
      </trkpt>
      <trkpt lat="46.600634" lon="11.725836">
        <ele>2516.7</ele>
      </trkpt>
      <trkpt lat="46.600613" lon="11.725876">
        <ele>2516.7</ele>
      </trkpt>
      <trkpt lat="46.600595" lon="11.725899">
        <ele>2516.6</ele>
      </trkpt>
      <trkpt lat="46.600578" lon="11.725904">
        <ele>2516.6</ele>
      </trkpt>
      <trkpt lat="46.600559" lon="11.725899">
        <ele>2516.5</ele>
      </trkpt>
      <trkpt lat="46.600559" lon="11.72599">
        <ele>2515.8</ele>
      </trkpt>
      <trkpt lat="46.600569" lon="11.726053">
        <ele>2515.7</ele>
      </trkpt>
      <trkpt lat="46.600586" lon="11.72613">
        <ele>2516.4</ele>
      </trkpt>
      <trkpt lat="46.600592" lon="11.726164">
        <ele>2516.6</ele>
      </trkpt>
      <trkpt lat="46.600608" lon="11.726277">
        <ele>2517.3</ele>
      </trkpt>
      <trkpt lat="46.600631" lon="11.726403">
        <ele>2518.1</ele>
      </trkpt>
      <trkpt lat="46.600656" lon="11.7265">
        <ele>2518.1</ele>
      </trkpt>
      <trkpt lat="46.600727" lon="11.726684">
        <ele>2517.2</ele>
      </trkpt>
      <trkpt lat="46.600782" lon="11.726848">
        <ele>2516.6</ele>
      </trkpt>
      <trkpt lat="46.600795" lon="11.726969">
        <ele>2515.9</ele>
      </trkpt>
      <trkpt lat="46.600781" lon="11.72711">
        <ele>2514.7</ele>
      </trkpt>
      <trkpt lat="46.600748" lon="11.7272">
        <ele>2513.8</ele>
      </trkpt>
      <trkpt lat="46.600735" lon="11.727549">
        <ele>2508.3</ele>
      </trkpt>
      <trkpt lat="46.6007" lon="11.727721">
        <ele>2504.1</ele>
      </trkpt>
      <trkpt lat="46.600667" lon="11.72787">
        <ele>2500.5</ele>
      </trkpt>
      <trkpt lat="46.600621" lon="11.72796">
        <ele>2497.5</ele>
      </trkpt>
      <trkpt lat="46.60054" lon="11.727984">
        <ele>2494.5</ele>
      </trkpt>
      <trkpt lat="46.600389" lon="11.727867">
        <ele>2491.1</ele>
      </trkpt>
      <trkpt lat="46.600362" lon="11.727878">
        <ele>2489.5</ele>
      </trkpt>
      <trkpt lat="46.600363" lon="11.728061">
        <ele>2486.7</ele>
      </trkpt>
      <trkpt lat="46.600362" lon="11.72832">
        <ele>2482.3</ele>
      </trkpt>
      <trkpt lat="46.600409" lon="11.728426">
        <ele>2479.7</ele>
      </trkpt>
      <trkpt lat="46.60046" lon="11.728482">
        <ele>2480.4</ele>
      </trkpt>
      <trkpt lat="46.600464" lon="11.728565">
        <ele>2479.5</ele>
      </trkpt>
      <trkpt lat="46.600399" lon="11.728699">
        <ele>2476.4</ele>
      </trkpt>
      <trkpt lat="46.600343" lon="11.728724">
        <ele>2474.9</ele>
      </trkpt>
      <trkpt lat="46.600242" lon="11.728648">
        <ele>2472.4</ele>
      </trkpt>
      <trkpt lat="46.600197" lon="11.728677">
        <ele>2470.4</ele>
      </trkpt>
      <trkpt lat="46.600212" lon="11.728856">
        <ele>2467.1</ele>
      </trkpt>
      <trkpt lat="46.600257" lon="11.729102">
        <ele>2462.7</ele>
      </trkpt>
      <trkpt lat="46.600327" lon="11.729194">
        <ele>2459.7</ele>
      </trkpt>
      <trkpt lat="46.600322" lon="11.729319">
        <ele>2458.2</ele>
      </trkpt>
      <trkpt lat="46.600319" lon="11.729442">
        <ele>2456.6</ele>
      </trkpt>
      <trkpt lat="46.600367" lon="11.729658">
        <ele>2454.5</ele>
      </trkpt>
      <trkpt lat="46.600448" lon="11.729866">
        <ele>2453.2</ele>
      </trkpt>
      <trkpt lat="46.60049" lon="11.730085">
        <ele>2451.5</ele>
      </trkpt>
      <trkpt lat="46.600499" lon="11.730162">
        <ele>2450.7</ele>
      </trkpt>
      <trkpt lat="46.600502" lon="11.730227">
        <ele>2450.3</ele>
      </trkpt>
      <trkpt lat="46.600512" lon="11.730271">
        <ele>2450.3</ele>
      </trkpt>
      <trkpt lat="46.600526" lon="11.730295">
        <ele>2450.4</ele>
      </trkpt>
      <trkpt lat="46.600531" lon="11.730318">
        <ele>2450.3</ele>
      </trkpt>
      <trkpt lat="46.600534" lon="11.730362">
        <ele>2450.0</ele>
      </trkpt>
      <trkpt lat="46.600541" lon="11.730404">
        <ele>2449.9</ele>
      </trkpt>
      <trkpt lat="46.600552" lon="11.730491">
        <ele>2449.6</ele>
      </trkpt>
      <trkpt lat="46.600565" lon="11.730606">
        <ele>2449.1</ele>
      </trkpt>
      <trkpt lat="46.600594" lon="11.730728">
        <ele>2449.4</ele>
      </trkpt>
      <trkpt lat="46.600614" lon="11.730836">
        <ele>2449.9</ele>
      </trkpt>
      <trkpt lat="46.600636" lon="11.730878">
        <ele>2450.2</ele>
      </trkpt>
      <trkpt lat="46.60067" lon="11.730924">
        <ele>2450.1</ele>
      </trkpt>
      <trkpt lat="46.6007" lon="11.730979">
        <ele>2449.6</ele>
      </trkpt>
      <trkpt lat="46.600736" lon="11.731198">
        <ele>2449.2</ele>
      </trkpt>
      <trkpt lat="46.600783" lon="11.731476">
        <ele>2448.2</ele>
      </trkpt>
      <trkpt lat="46.600796" lon="11.731748">
        <ele>2447.6</ele>
      </trkpt>
      <trkpt lat="46.600904" lon="11.732136">
        <ele>2448.3</ele>
      </trkpt>
      <trkpt lat="46.60097" lon="11.732578">
        <ele>2448.2</ele>
      </trkpt>
      <trkpt lat="46.601035" lon="11.733114">
        <ele>2449.0</ele>
      </trkpt>
      <trkpt lat="46.601062" lon="11.733718">
        <ele>2448.5</ele>
      </trkpt>
      <trkpt lat="46.601093" lon="11.733944">
        <ele>2449.2</ele>
      </trkpt>
      <trkpt lat="46.60114" lon="11.734169">
        <ele>2449.4</ele>
      </trkpt>
      <trkpt lat="46.60123" lon="11.734542">
        <ele>2449.4</ele>
      </trkpt>
      <trkpt lat="46.601268" lon="11.73509">
        <ele>2447.2</ele>
      </trkpt>
      <trkpt lat="46.601284" lon="11.735309">
        <ele>2446.4</ele>
      </trkpt>
      <trkpt lat="46.601246" lon="11.735464">
        <ele>2445.2</ele>
      </trkpt>
      <trkpt lat="46.601219" lon="11.735626">
        <ele>2444.9</ele>
      </trkpt>
      <trkpt lat="46.601195" lon="11.735666">
        <ele>2443.1</ele>
      </trkpt>
      <trkpt lat="46.601189" lon="11.735716">
        <ele>2442.9</ele>
      </trkpt>
      <trkpt lat="46.601162" lon="11.735763">
        <ele>2441.1</ele>
      </trkpt>
      <trkpt lat="46.601134" lon="11.735819">
        <ele>2439.5</ele>
      </trkpt>
      <trkpt lat="46.601112" lon="11.735872">
        <ele>2438.5</ele>
      </trkpt>
      <trkpt lat="46.601098" lon="11.735896">
        <ele>2437.7</ele>
      </trkpt>
      <trkpt lat="46.601085" lon="11.735861">
        <ele>2436.5</ele>
      </trkpt>
      <trkpt lat="46.601075" lon="11.73576">
        <ele>2435.3</ele>
      </trkpt>
      <trkpt lat="46.601062" lon="11.735681">
        <ele>2434.3</ele>
      </trkpt>
      <trkpt lat="46.601044" lon="11.735605">
        <ele>2433.1</ele>
      </trkpt>
      <trkpt lat="46.601042" lon="11.735458">
        <ele>2430.7</ele>
      </trkpt>
      <trkpt lat="46.601022" lon="11.735408">
        <ele>2430.4</ele>
      </trkpt>
      <trkpt lat="46.600991" lon="11.735411">
        <ele>2429.1</ele>
      </trkpt>
      <trkpt lat="46.600953" lon="11.735386">
        <ele>2427.6</ele>
      </trkpt>
      <trkpt lat="46.600928" lon="11.735363">
        <ele>2426.7</ele>
      </trkpt>
      <trkpt lat="46.600896" lon="11.735341">
        <ele>2425.5</ele>
      </trkpt>
      <trkpt lat="46.600879" lon="11.735355">
        <ele>2424.9</ele>
      </trkpt>
      <trkpt lat="46.600858" lon="11.735385">
        <ele>2423.8</ele>
      </trkpt>
      <trkpt lat="46.60083" lon="11.735358">
        <ele>2422.5</ele>
      </trkpt>
      <trkpt lat="46.600808" lon="11.735302">
        <ele>2421.5</ele>
      </trkpt>
      <trkpt lat="46.600748" lon="11.735161">
        <ele>2418.3</ele>
      </trkpt>
      <trkpt lat="46.60073" lon="11.735103">
        <ele>2416.7</ele>
      </trkpt>
      <trkpt lat="46.600706" lon="11.735048">
        <ele>2415.3</ele>
      </trkpt>
      <trkpt lat="46.600677" lon="11.734994">
        <ele>2414.7</ele>
      </trkpt>
      <trkpt lat="46.600648" lon="11.734994">
        <ele>2413.4</ele>
      </trkpt>
      <trkpt lat="46.600628" lon="11.73502">
        <ele>2411.7</ele>
      </trkpt>
      <trkpt lat="46.600631" lon="11.735064">
        <ele>2411.3</ele>
      </trkpt>
      <trkpt lat="46.600622" lon="11.735095">
        <ele>2410.8</ele>
      </trkpt>
      <trkpt lat="46.600595" lon="11.735112">
        <ele>2409.6</ele>
      </trkpt>
      <trkpt lat="46.600505" lon="11.734996">
        <ele>2406.2</ele>
      </trkpt>
      <trkpt lat="46.600388" lon="11.734858">
        <ele>2402.5</ele>
      </trkpt>
      <trkpt lat="46.600317" lon="11.734788">
        <ele>2399.8</ele>
      </trkpt>
      <trkpt lat="46.600241" lon="11.734734">
        <ele>2397.4</ele>
      </trkpt>
      <trkpt lat="46.600175" lon="11.734707">
        <ele>2395.4</ele>
      </trkpt>
      <trkpt lat="46.600114" lon="11.73469">
        <ele>2392.7</ele>
      </trkpt>
      <trkpt lat="46.600067" lon="11.734638">
        <ele>2391.4</ele>
      </trkpt>
      <trkpt lat="46.600007" lon="11.73463">
        <ele>2389.4</ele>
      </trkpt>
      <trkpt lat="46.599963" lon="11.734638">
        <ele>2388.2</ele>
      </trkpt>
      <trkpt lat="46.599907" lon="11.734664">
        <ele>2386.9</ele>
      </trkpt>
      <trkpt lat="46.599862" lon="11.734731">
        <ele>2385.4</ele>
      </trkpt>
      <trkpt lat="46.599849" lon="11.734822">
        <ele>2383.7</ele>
      </trkpt>
      <trkpt lat="46.599878" lon="11.734937">
        <ele>2381.7</ele>
      </trkpt>
      <trkpt lat="46.59989" lon="11.735059">
        <ele>2379.1</ele>
      </trkpt>
      <trkpt lat="46.599874" lon="11.735282">
        <ele>2377.1</ele>
      </trkpt>
      <trkpt lat="46.599872" lon="11.735432">
        <ele>2375.9</ele>
      </trkpt>
      <trkpt lat="46.599844" lon="11.735528">
        <ele>2374.1</ele>
      </trkpt>
      <trkpt lat="46.599799" lon="11.735615">
        <ele>2372.3</ele>
      </trkpt>
      <trkpt lat="46.599791" lon="11.735707">
        <ele>2371.6</ele>
      </trkpt>
      <trkpt lat="46.599798" lon="11.735837">
        <ele>2370.2</ele>
      </trkpt>
      <trkpt lat="46.599766" lon="11.736005">
        <ele>2367.5</ele>
      </trkpt>
      <trkpt lat="46.599752" lon="11.736166">
        <ele>2365.9</ele>
      </trkpt>
      <trkpt lat="46.599737" lon="11.736218">
        <ele>2365.3</ele>
      </trkpt>
      <trkpt lat="46.59974" lon="11.736261">
        <ele>2365.0</ele>
      </trkpt>
      <trkpt lat="46.599759" lon="11.736275">
        <ele>2365.1</ele>
      </trkpt>
      <trkpt lat="46.599783" lon="11.736305">
        <ele>2364.0</ele>
      </trkpt>
      <trkpt lat="46.599799" lon="11.736336">
        <ele>2363.1</ele>
      </trkpt>
      <trkpt lat="46.599799" lon="11.736384">
        <ele>2362.2</ele>
      </trkpt>
      <trkpt lat="46.599795" lon="11.736418">
        <ele>2361.7</ele>
      </trkpt>
      <trkpt lat="46.59979" lon="11.736455">
        <ele>2361.1</ele>
      </trkpt>
      <trkpt lat="46.599753" lon="11.736543">
        <ele>2359.2</ele>
      </trkpt>
      <trkpt lat="46.599724" lon="11.736659">
        <ele>2356.0</ele>
      </trkpt>
      <trkpt lat="46.599729" lon="11.736708">
        <ele>2355.2</ele>
      </trkpt>
      <trkpt lat="46.59975" lon="11.736767">
        <ele>2354.5</ele>
      </trkpt>
      <trkpt lat="46.59974" lon="11.736893">
        <ele>2351.0</ele>
      </trkpt>
      <trkpt lat="46.599749" lon="11.737019">
        <ele>2349.9</ele>
      </trkpt>
      <trkpt lat="46.599695" lon="11.73715">
        <ele>2344.8</ele>
      </trkpt>
      <trkpt lat="46.599691" lon="11.737209">
        <ele>2344.0</ele>
      </trkpt>
      <trkpt lat="46.599708" lon="11.737372">
        <ele>2341.7</ele>
      </trkpt>
      <trkpt lat="46.599697" lon="11.737441">
        <ele>2340.5</ele>
      </trkpt>
      <trkpt lat="46.59971" lon="11.737525">
        <ele>2339.5</ele>
      </trkpt>
      <trkpt lat="46.59976" lon="11.737641">
        <ele>2337.5</ele>
      </trkpt>
      <trkpt lat="46.599774" lon="11.737884">
        <ele>2333.9</ele>
      </trkpt>
      <trkpt lat="46.599815" lon="11.737957">
        <ele>2333.5</ele>
      </trkpt>
      <trkpt lat="46.599813" lon="11.738013">
        <ele>2332.2</ele>
      </trkpt>
      <trkpt lat="46.599749" lon="11.737952">
        <ele>2330.2</ele>
      </trkpt>
      <trkpt lat="46.599707" lon="11.737944">
        <ele>2328.3</ele>
      </trkpt>
      <trkpt lat="46.599733" lon="11.738142">
        <ele>2326.3</ele>
      </trkpt>
      <trkpt lat="46.59973" lon="11.738276">
        <ele>2324.0</ele>
      </trkpt>
      <trkpt lat="46.599705" lon="11.738362">
        <ele>2322.5</ele>
      </trkpt>
      <trkpt lat="46.599638" lon="11.738375">
        <ele>2320.3</ele>
      </trkpt>
      <trkpt lat="46.599562" lon="11.738345">
        <ele>2317.0</ele>
      </trkpt>
      <trkpt lat="46.599519" lon="11.738335">
        <ele>2315.9</ele>
      </trkpt>
      <trkpt lat="46.599455" lon="11.738289">
        <ele>2314.5</ele>
      </trkpt>
      <trkpt lat="46.599381" lon="11.738218">
        <ele>2312.5</ele>
      </trkpt>
      <trkpt lat="46.599304" lon="11.738126">
        <ele>2310.1</ele>
      </trkpt>
      <trkpt lat="46.599252" lon="11.738037">
        <ele>2307.8</ele>
      </trkpt>
      <trkpt lat="46.599195" lon="11.737948">
        <ele>2306.2</ele>
      </trkpt>
      <trkpt lat="46.599152" lon="11.7379">
        <ele>2304.8</ele>
      </trkpt>
      <trkpt lat="46.599078" lon="11.737909">
        <ele>2303.0</ele>
      </trkpt>
      <trkpt lat="46.599009" lon="11.737959">
        <ele>2301.5</ele>
      </trkpt>
      <trkpt lat="46.598946" lon="11.73808">
        <ele>2298.9</ele>
      </trkpt>
      <trkpt lat="46.598931" lon="11.738137">
        <ele>2297.8</ele>
      </trkpt>
      <trkpt lat="46.598907" lon="11.738171">
        <ele>2296.5</ele>
      </trkpt>
      <trkpt lat="46.598864" lon="11.738154">
        <ele>2295.1</ele>
      </trkpt>
      <trkpt lat="46.598806" lon="11.738126">
        <ele>2292.8</ele>
      </trkpt>
      <trkpt lat="46.59876" lon="11.738074">
        <ele>2291.0</ele>
      </trkpt>
      <trkpt lat="46.598737" lon="11.738075">
        <ele>2290.3</ele>
      </trkpt>
      <trkpt lat="46.598692" lon="11.738126">
        <ele>2288.6</ele>
      </trkpt>
      <trkpt lat="46.598627" lon="11.738217">
        <ele>2285.8</ele>
      </trkpt>
      <trkpt lat="46.598545" lon="11.738292">
        <ele>2284.0</ele>
      </trkpt>
      <trkpt lat="46.598404" lon="11.738483">
        <ele>2281.2</ele>
      </trkpt>
      <trkpt lat="46.598371" lon="11.738563">
        <ele>2280.0</ele>
      </trkpt>
      <trkpt lat="46.598319" lon="11.738771">
        <ele>2276.9</ele>
      </trkpt>
      <trkpt lat="46.598228" lon="11.738961">
        <ele>2275.8</ele>
      </trkpt>
      <trkpt lat="46.598151" lon="11.739133">
        <ele>2275.3</ele>
      </trkpt>
      <trkpt lat="46.598139" lon="11.739195">
        <ele>2275.1</ele>
      </trkpt>
      <trkpt lat="46.598127" lon="11.739257">
        <ele>2274.9</ele>
      </trkpt>
      <trkpt lat="46.598075" lon="11.739363">
        <ele>2275.2</ele>
      </trkpt>
      <trkpt lat="46.598036" lon="11.739342">
        <ele>2275.0</ele>
      </trkpt>
      <trkpt lat="46.597996" lon="11.739363">
        <ele>2275.2</ele>
      </trkpt>
      <trkpt lat="46.597963" lon="11.739402">
        <ele>2275.1</ele>
        <name>Baita Troier - Troier Hütte</name>
        <extensions>
          <oa:locType>routingNode</oa:locType>
          <oa:Extension>
            <oa:mapZoom>17</oa:mapZoom>
          </oa:Extension>
        </extensions>
      </trkpt>
      <trkpt lat="46.597996" lon="11.739363">
        <ele>2275.2</ele>
      </trkpt>
      <trkpt lat="46.598036" lon="11.739342">
        <ele>2275.0</ele>
      </trkpt>
      <trkpt lat="46.598075" lon="11.739363">
        <ele>2275.2</ele>
      </trkpt>
      <trkpt lat="46.598127" lon="11.739257">
        <ele>2274.9</ele>
      </trkpt>
      <trkpt lat="46.598178" lon="11.739325">
        <ele>2275.8</ele>
      </trkpt>
      <trkpt lat="46.598292" lon="11.739401">
        <ele>2278.3</ele>
      </trkpt>
      <trkpt lat="46.598314" lon="11.739454">
        <ele>2279.7</ele>
      </trkpt>
      <trkpt lat="46.59832" lon="11.739581">
        <ele>2282.9</ele>
      </trkpt>
      <trkpt lat="46.598378" lon="11.739702">
        <ele>2286.9</ele>
      </trkpt>
      <trkpt lat="46.598415" lon="11.739793">
        <ele>2288.6</ele>
      </trkpt>
      <trkpt lat="46.598431" lon="11.739881">
        <ele>2290.6</ele>
      </trkpt>
      <trkpt lat="46.598496" lon="11.739982">
        <ele>2293.5</ele>
      </trkpt>
      <trkpt lat="46.598534" lon="11.740097">
        <ele>2294.9</ele>
      </trkpt>
      <trkpt lat="46.598589" lon="11.740303">
        <ele>2297.4</ele>
      </trkpt>
      <trkpt lat="46.59859" lon="11.740521">
        <ele>2298.8</ele>
      </trkpt>
      <trkpt lat="46.59867" lon="11.740702">
        <ele>2301.1</ele>
      </trkpt>
      <trkpt lat="46.598701" lon="11.740894">
        <ele>2300.2</ele>
      </trkpt>
      <trkpt lat="46.598757" lon="11.740946">
        <ele>2300.6</ele>
      </trkpt>
      <trkpt lat="46.598855" lon="11.740981">
        <ele>2301.2</ele>
      </trkpt>
      <trkpt lat="46.599012" lon="11.741185">
        <ele>2302.2</ele>
      </trkpt>
      <trkpt lat="46.599089" lon="11.741127">
        <ele>2302.8</ele>
      </trkpt>
      <trkpt lat="46.599148" lon="11.741128">
        <ele>2303.8</ele>
      </trkpt>
      <trkpt lat="46.599207" lon="11.741448">
        <ele>2302.8</ele>
      </trkpt>
      <trkpt lat="46.599261" lon="11.741533">
        <ele>2303.5</ele>
      </trkpt>
      <trkpt lat="46.599329" lon="11.741751">
        <ele>2305.1</ele>
      </trkpt>
      <trkpt lat="46.599349" lon="11.741889">
        <ele>2304.3</ele>
      </trkpt>
      <trkpt lat="46.599338" lon="11.741964">
        <ele>2303.1</ele>
      </trkpt>
      <trkpt lat="46.59934" lon="11.742054">
        <ele>2302.6</ele>
      </trkpt>
      <trkpt lat="46.599323" lon="11.742181">
        <ele>2300.4</ele>
      </trkpt>
      <trkpt lat="46.599291" lon="11.742281">
        <ele>2298.9</ele>
      </trkpt>
      <trkpt lat="46.599286" lon="11.742338">
        <ele>2298.6</ele>
      </trkpt>
      <trkpt lat="46.599272" lon="11.742394">
        <ele>2298.2</ele>
      </trkpt>
      <trkpt lat="46.599284" lon="11.742474">
        <ele>2298.0</ele>
      </trkpt>
      <trkpt lat="46.599339" lon="11.742656">
        <ele>2297.5</ele>
      </trkpt>
      <trkpt lat="46.599341" lon="11.742706">
        <ele>2297.6</ele>
      </trkpt>
      <trkpt lat="46.599357" lon="11.742739">
        <ele>2297.5</ele>
      </trkpt>
      <trkpt lat="46.599355" lon="11.742787">
        <ele>2297.0</ele>
      </trkpt>
      <trkpt lat="46.599338" lon="11.742844">
        <ele>2296.4</ele>
      </trkpt>
      <trkpt lat="46.59936" lon="11.743053">
        <ele>2296.2</ele>
      </trkpt>
      <trkpt lat="46.599362" lon="11.743096">
        <ele>2296.2</ele>
      </trkpt>
      <trkpt lat="46.599333" lon="11.743167">
        <ele>2295.4</ele>
      </trkpt>
      <trkpt lat="46.599297" lon="11.7432">
        <ele>2294.7</ele>
      </trkpt>
      <trkpt lat="46.599273" lon="11.743225">
        <ele>2294.6</ele>
      </trkpt>
      <trkpt lat="46.599225" lon="11.743288">
        <ele>2294.9</ele>
      </trkpt>
      <trkpt lat="46.599197" lon="11.743313">
        <ele>2294.4</ele>
      </trkpt>
      <trkpt lat="46.599145" lon="11.74339">
        <ele>2294.6</ele>
      </trkpt>
      <trkpt lat="46.599075" lon="11.743474">
        <ele>2295.7</ele>
      </trkpt>
      <trkpt lat="46.599038" lon="11.743525">
        <ele>2295.5</ele>
      </trkpt>
      <trkpt lat="46.599024" lon="11.743595">
        <ele>2296.2</ele>
      </trkpt>
      <trkpt lat="46.599028" lon="11.743699">
        <ele>2296.8</ele>
      </trkpt>
      <trkpt lat="46.599033" lon="11.743771">
        <ele>2297.2</ele>
      </trkpt>
      <trkpt lat="46.599041" lon="11.743837">
        <ele>2297.0</ele>
      </trkpt>
      <trkpt lat="46.599059" lon="11.743889">
        <ele>2297.7</ele>
      </trkpt>
      <trkpt lat="46.599052" lon="11.743908">
        <ele>2297.4</ele>
      </trkpt>
      <trkpt lat="46.599032" lon="11.74393">
        <ele>2296.3</ele>
      </trkpt>
      <trkpt lat="46.599023" lon="11.743985">
        <ele>2295.9</ele>
      </trkpt>
      <trkpt lat="46.598997" lon="11.744082">
        <ele>2295.4</ele>
      </trkpt>
      <trkpt lat="46.598989" lon="11.744169">
        <ele>2295.7</ele>
      </trkpt>
      <trkpt lat="46.598994" lon="11.744235">
        <ele>2295.5</ele>
      </trkpt>
      <trkpt lat="46.598981" lon="11.744308">
        <ele>2295.6</ele>
      </trkpt>
      <trkpt lat="46.598951" lon="11.744344">
        <ele>2295.1</ele>
      </trkpt>
      <trkpt lat="46.598928" lon="11.744364">
        <ele>2294.6</ele>
      </trkpt>
      <trkpt lat="46.598911" lon="11.744431">
        <ele>2294.0</ele>
      </trkpt>
      <trkpt lat="46.598901" lon="11.744505">
        <ele>2294.3</ele>
      </trkpt>
      <trkpt lat="46.598886" lon="11.744579">
        <ele>2295.1</ele>
      </trkpt>
      <trkpt lat="46.598872" lon="11.74461">
        <ele>2295.4</ele>
      </trkpt>
      <trkpt lat="46.598867" lon="11.744619">
        <ele>2295.4</ele>
      </trkpt>
      <trkpt lat="46.598844" lon="11.744637">
        <ele>2295.2</ele>
      </trkpt>
      <trkpt lat="46.598806" lon="11.744687">
        <ele>2294.8</ele>
      </trkpt>
      <trkpt lat="46.598753" lon="11.744753">
        <ele>2294.5</ele>
      </trkpt>
      <trkpt lat="46.598732" lon="11.744772">
        <ele>2294.1</ele>
      </trkpt>
      <trkpt lat="46.598659" lon="11.744865">
        <ele>2293.6</ele>
      </trkpt>
      <trkpt lat="46.598594" lon="11.744908">
        <ele>2293.8</ele>
      </trkpt>
      <trkpt lat="46.598519" lon="11.744976">
        <ele>2293.4</ele>
      </trkpt>
      <trkpt lat="46.598444" lon="11.74506">
        <ele>2292.6</ele>
      </trkpt>
      <trkpt lat="46.598426" lon="11.745084">
        <ele>2292.4</ele>
      </trkpt>
      <trkpt lat="46.598396" lon="11.745123">
        <ele>2291.7</ele>
      </trkpt>
      <trkpt lat="46.598356" lon="11.74518">
        <ele>2290.8</ele>
      </trkpt>
      <trkpt lat="46.598307" lon="11.745213">
        <ele>2290.8</ele>
      </trkpt>
      <trkpt lat="46.598269" lon="11.745264">
        <ele>2291.4</ele>
      </trkpt>
      <trkpt lat="46.598177" lon="11.745339">
        <ele>2294.8</ele>
      </trkpt>
      <trkpt lat="46.598076" lon="11.745385">
        <ele>2297.2</ele>
      </trkpt>
      <trkpt lat="46.597979" lon="11.745415">
        <ele>2297.2</ele>
      </trkpt>
      <trkpt lat="46.597895" lon="11.745495">
        <ele>2299.2</ele>
      </trkpt>
      <trkpt lat="46.597804" lon="11.745511">
        <ele>2298.8</ele>
      </trkpt>
      <trkpt lat="46.597795" lon="11.745545">
        <ele>2300.6</ele>
      </trkpt>
      <trkpt lat="46.597768" lon="11.745567">
        <ele>2300.7</ele>
      </trkpt>
      <trkpt lat="46.597675" lon="11.745665">
        <ele>2302.5</ele>
      </trkpt>
      <trkpt lat="46.597612" lon="11.745751">
        <ele>2303.9</ele>
      </trkpt>
      <trkpt lat="46.597515" lon="11.74582">
        <ele>2304.0</ele>
      </trkpt>
      <trkpt lat="46.597473" lon="11.745847">
        <ele>2304.1</ele>
      </trkpt>
      <trkpt lat="46.597399" lon="11.745867">
        <ele>2303.1</ele>
      </trkpt>
      <trkpt lat="46.5973" lon="11.745932">
        <ele>2305.2</ele>
      </trkpt>
      <trkpt lat="46.597157" lon="11.746008">
        <ele>2305.8</ele>
      </trkpt>
      <trkpt lat="46.597117" lon="11.746011">
        <ele>2305.3</ele>
      </trkpt>
      <trkpt lat="46.597083" lon="11.746075">
        <ele>2305.6</ele>
      </trkpt>
      <trkpt lat="46.596994" lon="11.746206">
        <ele>2304.1</ele>
      </trkpt>
      <trkpt lat="46.596966" lon="11.746273">
        <ele>2304.0</ele>
      </trkpt>
      <trkpt lat="46.596958" lon="11.746363">
        <ele>2304.3</ele>
      </trkpt>
      <trkpt lat="46.596943" lon="11.74645">
        <ele>2303.9</ele>
      </trkpt>
      <trkpt lat="46.59694" lon="11.746523">
        <ele>2304.8</ele>
      </trkpt>
      <trkpt lat="46.596948" lon="11.746611">
        <ele>2303.9</ele>
      </trkpt>
      <trkpt lat="46.596982" lon="11.746717">
        <ele>2303.1</ele>
      </trkpt>
      <trkpt lat="46.596995" lon="11.746813">
        <ele>2302.0</ele>
      </trkpt>
      <trkpt lat="46.597027" lon="11.746894">
        <ele>2301.9</ele>
      </trkpt>
      <trkpt lat="46.597027" lon="11.746956">
        <ele>2301.3</ele>
      </trkpt>
      <trkpt lat="46.597056" lon="11.747037">
        <ele>2301.5</ele>
      </trkpt>
      <trkpt lat="46.597084" lon="11.747185">
        <ele>2301.1</ele>
      </trkpt>
      <trkpt lat="46.597109" lon="11.747257">
        <ele>2300.8</ele>
      </trkpt>
      <trkpt lat="46.597161" lon="11.747325">
        <ele>2300.0</ele>
      </trkpt>
      <trkpt lat="46.597179" lon="11.747377">
        <ele>2298.9</ele>
      </trkpt>
      <trkpt lat="46.597177" lon="11.74744">
        <ele>2297.7</ele>
      </trkpt>
      <trkpt lat="46.597217" lon="11.74753">
        <ele>2296.3</ele>
      </trkpt>
      <trkpt lat="46.597238" lon="11.747589">
        <ele>2295.3</ele>
      </trkpt>
      <trkpt lat="46.597264" lon="11.747644">
        <ele>2294.8</ele>
      </trkpt>
      <trkpt lat="46.597296" lon="11.747685">
        <ele>2294.5</ele>
      </trkpt>
      <trkpt lat="46.597357" lon="11.747765">
        <ele>2293.9</ele>
        <name>Parch Natural Pöz-Odles - Naturpark Puez-Geisler - Parco Naturale Puez-Odle, Santa Cristina Gherdëina - St. Christina in Gröden - Santa Cristina Valgardena, Salten-Schlern - Salto-Sciliar</name>
        <extensions>
          <oa:Extension>
            <oa:mapZoom>16</oa:mapZoom>
          </oa:Extension>
        </extensions>
      </trkpt>
      <trkpt lat="46.597296" lon="11.747685">
        <ele>2294.5</ele>
      </trkpt>
      <trkpt lat="46.597264" lon="11.747644">
        <ele>2294.8</ele>
      </trkpt>
      <trkpt lat="46.597238" lon="11.747589">
        <ele>2295.3</ele>
      </trkpt>
      <trkpt lat="46.597217" lon="11.74753">
        <ele>2296.3</ele>
      </trkpt>
      <trkpt lat="46.597177" lon="11.74744">
        <ele>2297.7</ele>
      </trkpt>
      <trkpt lat="46.597179" lon="11.747377">
        <ele>2298.9</ele>
      </trkpt>
      <trkpt lat="46.597161" lon="11.747325">
        <ele>2300.0</ele>
      </trkpt>
      <trkpt lat="46.597109" lon="11.747257">
        <ele>2300.8</ele>
      </trkpt>
      <trkpt lat="46.597084" lon="11.747185">
        <ele>2301.1</ele>
      </trkpt>
      <trkpt lat="46.597056" lon="11.747037">
        <ele>2301.5</ele>
      </trkpt>
      <trkpt lat="46.597027" lon="11.746956">
        <ele>2301.3</ele>
      </trkpt>
      <trkpt lat="46.597027" lon="11.746894">
        <ele>2301.9</ele>
      </trkpt>
      <trkpt lat="46.596995" lon="11.746813">
        <ele>2302.0</ele>
      </trkpt>
      <trkpt lat="46.596982" lon="11.746717">
        <ele>2303.1</ele>
      </trkpt>
      <trkpt lat="46.596948" lon="11.746611">
        <ele>2303.9</ele>
      </trkpt>
      <trkpt lat="46.59694" lon="11.746523">
        <ele>2304.8</ele>
      </trkpt>
      <trkpt lat="46.596943" lon="11.74645">
        <ele>2303.9</ele>
      </trkpt>
      <trkpt lat="46.596958" lon="11.746363">
        <ele>2304.3</ele>
      </trkpt>
      <trkpt lat="46.596966" lon="11.746273">
        <ele>2304.0</ele>
      </trkpt>
      <trkpt lat="46.596994" lon="11.746206">
        <ele>2304.1</ele>
      </trkpt>
      <trkpt lat="46.597083" lon="11.746075">
        <ele>2305.6</ele>
      </trkpt>
      <trkpt lat="46.597117" lon="11.746011">
        <ele>2305.3</ele>
      </trkpt>
      <trkpt lat="46.597157" lon="11.746008">
        <ele>2305.8</ele>
      </trkpt>
      <trkpt lat="46.5973" lon="11.745932">
        <ele>2305.2</ele>
      </trkpt>
      <trkpt lat="46.597399" lon="11.745867">
        <ele>2303.1</ele>
      </trkpt>
      <trkpt lat="46.597473" lon="11.745847">
        <ele>2304.1</ele>
      </trkpt>
      <trkpt lat="46.597515" lon="11.74582">
        <ele>2304.0</ele>
      </trkpt>
      <trkpt lat="46.597612" lon="11.745751">
        <ele>2303.9</ele>
      </trkpt>
      <trkpt lat="46.597675" lon="11.745665">
        <ele>2302.5</ele>
      </trkpt>
      <trkpt lat="46.597768" lon="11.745567">
        <ele>2300.7</ele>
      </trkpt>
      <trkpt lat="46.597795" lon="11.745545">
        <ele>2300.6</ele>
      </trkpt>
      <trkpt lat="46.597804" lon="11.745511">
        <ele>2298.8</ele>
      </trkpt>
      <trkpt lat="46.597895" lon="11.745495">
        <ele>2299.2</ele>
      </trkpt>
      <trkpt lat="46.597979" lon="11.745415">
        <ele>2297.2</ele>
      </trkpt>
      <trkpt lat="46.598076" lon="11.745385">
        <ele>2297.2</ele>
      </trkpt>
      <trkpt lat="46.598177" lon="11.745339">
        <ele>2294.8</ele>
      </trkpt>
      <trkpt lat="46.598269" lon="11.745264">
        <ele>2291.4</ele>
      </trkpt>
      <trkpt lat="46.598307" lon="11.745213">
        <ele>2290.8</ele>
      </trkpt>
      <trkpt lat="46.598356" lon="11.74518">
        <ele>2290.8</ele>
      </trkpt>
      <trkpt lat="46.598396" lon="11.745123">
        <ele>2291.7</ele>
      </trkpt>
      <trkpt lat="46.598426" lon="11.745084">
        <ele>2292.4</ele>
      </trkpt>
      <trkpt lat="46.598444" lon="11.74506">
        <ele>2292.6</ele>
      </trkpt>
      <trkpt lat="46.598519" lon="11.744976">
        <ele>2293.4</ele>
      </trkpt>
      <trkpt lat="46.598594" lon="11.744908">
        <ele>2293.8</ele>
      </trkpt>
      <trkpt lat="46.598659" lon="11.744865">
        <ele>2293.6</ele>
      </trkpt>
      <trkpt lat="46.598732" lon="11.744772">
        <ele>2294.1</ele>
      </trkpt>
      <trkpt lat="46.598753" lon="11.744753">
        <ele>2294.5</ele>
      </trkpt>
      <trkpt lat="46.598806" lon="11.744687">
        <ele>2294.8</ele>
      </trkpt>
      <trkpt lat="46.598844" lon="11.744637">
        <ele>2295.2</ele>
      </trkpt>
      <trkpt lat="46.598867" lon="11.744619">
        <ele>2295.4</ele>
      </trkpt>
      <trkpt lat="46.598872" lon="11.74461">
        <ele>2295.4</ele>
      </trkpt>
      <trkpt lat="46.598886" lon="11.744579">
        <ele>2295.1</ele>
      </trkpt>
      <trkpt lat="46.598901" lon="11.744505">
        <ele>2294.3</ele>
      </trkpt>
      <trkpt lat="46.598911" lon="11.744431">
        <ele>2294.0</ele>
      </trkpt>
      <trkpt lat="46.598928" lon="11.744364">
        <ele>2294.6</ele>
      </trkpt>
      <trkpt lat="46.598951" lon="11.744344">
        <ele>2295.1</ele>
      </trkpt>
      <trkpt lat="46.598981" lon="11.744308">
        <ele>2295.6</ele>
      </trkpt>
      <trkpt lat="46.598994" lon="11.744235">
        <ele>2295.5</ele>
      </trkpt>
      <trkpt lat="46.598989" lon="11.744169">
        <ele>2295.7</ele>
      </trkpt>
      <trkpt lat="46.598997" lon="11.744082">
        <ele>2295.4</ele>
      </trkpt>
      <trkpt lat="46.599023" lon="11.743985">
        <ele>2295.9</ele>
      </trkpt>
      <trkpt lat="46.599032" lon="11.74393">
        <ele>2296.3</ele>
      </trkpt>
      <trkpt lat="46.599052" lon="11.743908">
        <ele>2297.4</ele>
      </trkpt>
      <trkpt lat="46.599059" lon="11.743889">
        <ele>2297.7</ele>
      </trkpt>
      <trkpt lat="46.599041" lon="11.743837">
        <ele>2297.0</ele>
      </trkpt>
      <trkpt lat="46.599033" lon="11.743771">
        <ele>2297.2</ele>
      </trkpt>
      <trkpt lat="46.599028" lon="11.743699">
        <ele>2296.8</ele>
      </trkpt>
      <trkpt lat="46.599024" lon="11.743595">
        <ele>2296.2</ele>
      </trkpt>
      <trkpt lat="46.599038" lon="11.743525">
        <ele>2295.5</ele>
      </trkpt>
      <trkpt lat="46.599075" lon="11.743474">
        <ele>2295.7</ele>
      </trkpt>
      <trkpt lat="46.599145" lon="11.74339">
        <ele>2294.6</ele>
      </trkpt>
      <trkpt lat="46.599197" lon="11.743313">
        <ele>2294.4</ele>
      </trkpt>
      <trkpt lat="46.599225" lon="11.743288">
        <ele>2294.9</ele>
      </trkpt>
      <trkpt lat="46.599273" lon="11.743225">
        <ele>2294.6</ele>
      </trkpt>
      <trkpt lat="46.599297" lon="11.7432">
        <ele>2294.7</ele>
      </trkpt>
      <trkpt lat="46.599333" lon="11.743167">
        <ele>2295.4</ele>
      </trkpt>
      <trkpt lat="46.599362" lon="11.743096">
        <ele>2296.2</ele>
      </trkpt>
      <trkpt lat="46.59936" lon="11.743053">
        <ele>2296.2</ele>
      </trkpt>
      <trkpt lat="46.599338" lon="11.742844">
        <ele>2296.4</ele>
      </trkpt>
      <trkpt lat="46.599355" lon="11.742787">
        <ele>2297.0</ele>
      </trkpt>
      <trkpt lat="46.599357" lon="11.742739">
        <ele>2297.5</ele>
      </trkpt>
      <trkpt lat="46.599341" lon="11.742706">
        <ele>2297.6</ele>
      </trkpt>
      <trkpt lat="46.599339" lon="11.742656">
        <ele>2297.5</ele>
      </trkpt>
      <trkpt lat="46.599284" lon="11.742474">
        <ele>2298.0</ele>
      </trkpt>
      <trkpt lat="46.599272" lon="11.742394">
        <ele>2298.2</ele>
      </trkpt>
      <trkpt lat="46.599286" lon="11.742338">
        <ele>2298.6</ele>
      </trkpt>
      <trkpt lat="46.599291" lon="11.742281">
        <ele>2298.9</ele>
      </trkpt>
      <trkpt lat="46.599323" lon="11.742181">
        <ele>2300.4</ele>
      </trkpt>
      <trkpt lat="46.59934" lon="11.742054">
        <ele>2302.6</ele>
      </trkpt>
      <trkpt lat="46.599338" lon="11.741964">
        <ele>2303.1</ele>
      </trkpt>
      <trkpt lat="46.599349" lon="11.741889">
        <ele>2304.3</ele>
      </trkpt>
      <trkpt lat="46.599329" lon="11.741751">
        <ele>2305.1</ele>
      </trkpt>
      <trkpt lat="46.599261" lon="11.741533">
        <ele>2303.5</ele>
      </trkpt>
      <trkpt lat="46.599207" lon="11.741448">
        <ele>2302.8</ele>
      </trkpt>
      <trkpt lat="46.599148" lon="11.741128">
        <ele>2303.8</ele>
      </trkpt>
      <trkpt lat="46.599089" lon="11.741127">
        <ele>2302.8</ele>
      </trkpt>
      <trkpt lat="46.599012" lon="11.741185">
        <ele>2302.2</ele>
      </trkpt>
      <trkpt lat="46.598855" lon="11.740981">
        <ele>2301.2</ele>
      </trkpt>
      <trkpt lat="46.598757" lon="11.740946">
        <ele>2300.6</ele>
      </trkpt>
      <trkpt lat="46.598701" lon="11.740894">
        <ele>2300.2</ele>
      </trkpt>
      <trkpt lat="46.59867" lon="11.740702">
        <ele>2301.1</ele>
      </trkpt>
      <trkpt lat="46.59859" lon="11.740521">
        <ele>2298.8</ele>
      </trkpt>
      <trkpt lat="46.598589" lon="11.740303">
        <ele>2297.4</ele>
      </trkpt>
      <trkpt lat="46.598534" lon="11.740097">
        <ele>2294.9</ele>
      </trkpt>
      <trkpt lat="46.598496" lon="11.739982">
        <ele>2293.5</ele>
      </trkpt>
      <trkpt lat="46.598431" lon="11.739881">
        <ele>2290.6</ele>
      </trkpt>
      <trkpt lat="46.598415" lon="11.739793">
        <ele>2288.6</ele>
      </trkpt>
      <trkpt lat="46.598378" lon="11.739702">
        <ele>2286.9</ele>
      </trkpt>
      <trkpt lat="46.59832" lon="11.739581">
        <ele>2282.9</ele>
      </trkpt>
      <trkpt lat="46.598314" lon="11.739454">
        <ele>2279.7</ele>
      </trkpt>
      <trkpt lat="46.598292" lon="11.739401">
        <ele>2278.3</ele>
      </trkpt>
      <trkpt lat="46.598178" lon="11.739325">
        <ele>2275.8</ele>
      </trkpt>
      <trkpt lat="46.598127" lon="11.739257">
        <ele>2274.9</ele>
      </trkpt>
      <trkpt lat="46.598075" lon="11.739363">
        <ele>2275.2</ele>
      </trkpt>
      <trkpt lat="46.598036" lon="11.739342">
        <ele>2275.0</ele>
      </trkpt>
      <trkpt lat="46.597996" lon="11.739363">
        <ele>2275.2</ele>
      </trkpt>
      <trkpt lat="46.597963" lon="11.739402">
        <ele>2275.1</ele>
      </trkpt>
      <trkpt lat="46.597941" lon="11.739493">
        <ele>2274.9</ele>
      </trkpt>
      <trkpt lat="46.597939" lon="11.739536">
        <ele>2274.7</ele>
        <name>Baita Troier - Troier Hütte</name>
        <extensions>
          <oa:locType>routingNode</oa:locType>
          <oa:Extension>
            <oa:mapZoom>18</oa:mapZoom>
          </oa:Extension>
        </extensions>
      </trkpt>
      <trkpt lat="46.597941" lon="11.739493">
        <ele>2274.9</ele>
      </trkpt>
      <trkpt lat="46.597963" lon="11.739402">
        <ele>2275.1</ele>
      </trkpt>
      <trkpt lat="46.597996" lon="11.739363">
        <ele>2275.2</ele>
      </trkpt>
      <trkpt lat="46.598036" lon="11.739342">
        <ele>2275.0</ele>
      </trkpt>
      <trkpt lat="46.598075" lon="11.739363">
        <ele>2275.2</ele>
      </trkpt>
      <trkpt lat="46.598054" lon="11.739226">
        <ele>2273.8</ele>
      </trkpt>
      <trkpt lat="46.598027" lon="11.739116">
        <ele>2272.4</ele>
      </trkpt>
      <trkpt lat="46.597986" lon="11.73902">
        <ele>2270.9</ele>
      </trkpt>
      <trkpt lat="46.597837" lon="11.738834">
        <ele>2268.6</ele>
      </trkpt>
      <trkpt lat="46.597746" lon="11.738676">
        <ele>2266.2</ele>
      </trkpt>
      <trkpt lat="46.597619" lon="11.738532">
        <ele>2263.1</ele>
      </trkpt>
      <trkpt lat="46.597555" lon="11.738441">
        <ele>2261.2</ele>
      </trkpt>
      <trkpt lat="46.59754" lon="11.738302">
        <ele>2261.1</ele>
      </trkpt>
      <trkpt lat="46.597529" lon="11.738204">
        <ele>2262.4</ele>
      </trkpt>
      <trkpt lat="46.597485" lon="11.738138">
        <ele>2263.4</ele>
      </trkpt>
      <trkpt lat="46.597361" lon="11.73807">
        <ele>2265.2</ele>
      </trkpt>
      <trkpt lat="46.597313" lon="11.738012">
        <ele>2265.3</ele>
      </trkpt>
      <trkpt lat="46.597292" lon="11.737948">
        <ele>2265.5</ele>
      </trkpt>
      <trkpt lat="46.597255" lon="11.73775">
        <ele>2266.1</ele>
      </trkpt>
      <trkpt lat="46.597213" lon="11.737624">
        <ele>2266.4</ele>
      </trkpt>
      <trkpt lat="46.596992" lon="11.737242">
        <ele>2260.3</ele>
      </trkpt>
      <trkpt lat="46.596937" lon="11.737153">
        <ele>2258.4</ele>
      </trkpt>
      <trkpt lat="46.596909" lon="11.737059">
        <ele>2257.0</ele>
      </trkpt>
      <trkpt lat="46.596885" lon="11.736964">
        <ele>2255.3</ele>
      </trkpt>
      <trkpt lat="46.596896" lon="11.736868">
        <ele>2253.5</ele>
      </trkpt>
      <trkpt lat="46.596927" lon="11.736719">
        <ele>2250.4</ele>
      </trkpt>
      <trkpt lat="46.596929" lon="11.736622">
        <ele>2248.6</ele>
      </trkpt>
      <trkpt lat="46.596907" lon="11.736523">
        <ele>2246.8</ele>
      </trkpt>
      <trkpt lat="46.596796" lon="11.736177">
        <ele>2242.7</ele>
      </trkpt>
      <trkpt lat="46.596727" lon="11.735998">
        <ele>2241.4</ele>
      </trkpt>
      <trkpt lat="46.596563" lon="11.735728">
        <ele>2237.2</ele>
      </trkpt>
      <trkpt lat="46.596462" lon="11.73541">
        <ele>2236.0</ele>
      </trkpt>
      <trkpt lat="46.596406" lon="11.735301">
        <ele>2236.3</ele>
      </trkpt>
      <trkpt lat="46.596305" lon="11.735194">
        <ele>2236.8</ele>
      </trkpt>
      <trkpt lat="46.596193" lon="11.735082">
        <ele>2237.6</ele>
      </trkpt>
      <trkpt lat="46.59602" lon="11.734914">
        <ele>2236.0</ele>
      </trkpt>
      <trkpt lat="46.59575" lon="11.734628">
        <ele>2231.3</ele>
      </trkpt>
      <trkpt lat="46.595675" lon="11.734537">
        <ele>2228.7</ele>
      </trkpt>
      <trkpt lat="46.595621" lon="11.734516">
        <ele>2227.4</ele>
      </trkpt>
      <trkpt lat="46.595565" lon="11.734524">
        <ele>2226.5</ele>
      </trkpt>
      <trkpt lat="46.595497" lon="11.734553">
        <ele>2226.1</ele>
      </trkpt>
      <trkpt lat="46.595468" lon="11.734475">
        <ele>2226.4</ele>
      </trkpt>
      <trkpt lat="46.59541" lon="11.734342">
        <ele>2227.1</ele>
      </trkpt>
      <trkpt lat="46.595331" lon="11.734019">
        <ele>2229.0</ele>
      </trkpt>
      <trkpt lat="46.595237" lon="11.733782">
        <ele>2230.1</ele>
      </trkpt>
      <trkpt lat="46.595212" lon="11.73367">
        <ele>2230.5</ele>
      </trkpt>
      <trkpt lat="46.595188" lon="11.73356">
        <ele>2230.7</ele>
      </trkpt>
      <trkpt lat="46.595154" lon="11.733403">
        <ele>2230.8</ele>
      </trkpt>
      <trkpt lat="46.595151" lon="11.733369">
        <ele>2231.1</ele>
        <name>Santa Cristina Gherdëina - St. Christina in Gröden - Santa Cristina Valgardena, Salten-Schlern - Salto-Sciliar</name>
        <extensions>
          <oa:Extension>
            <oa:mapZoom>18</oa:mapZoom>
          </oa:Extension>
        </extensions>
      </trkpt>
      <trkpt lat="46.595131" lon="11.733168">
        <ele>2233.0</ele>
      </trkpt>
      <trkpt lat="46.595091" lon="11.732932">
        <ele>2236.0</ele>
      </trkpt>
      <trkpt lat="46.595035" lon="11.732706">
        <ele>2238.1</ele>
      </trkpt>
      <trkpt lat="46.595014" lon="11.732587">
        <ele>2239.0</ele>
      </trkpt>
      <trkpt lat="46.595035" lon="11.732222">
        <ele>2245.0</ele>
      </trkpt>
      <trkpt lat="46.594993" lon="11.731804">
        <ele>2251.2</ele>
      </trkpt>
      <trkpt lat="46.595011" lon="11.731457">
        <ele>2256.6</ele>
      </trkpt>
      <trkpt lat="46.594965" lon="11.731216">
        <ele>2260.4</ele>
      </trkpt>
      <trkpt lat="46.594969" lon="11.730871">
        <ele>2267.1</ele>
      </trkpt>
      <trkpt lat="46.595005" lon="11.730474">
        <ele>2275.3</ele>
      </trkpt>
      <trkpt lat="46.594946" lon="11.730324">
        <ele>2278.2</ele>
      </trkpt>
      <trkpt lat="46.594838" lon="11.730156">
        <ele>2280.0</ele>
      </trkpt>
      <trkpt lat="46.594792" lon="11.730089">
        <ele>2280.7</ele>
        <name>Mastle</name>
        <extensions>
          <oa:Extension>
            <oa:mapZoom>17</oa:mapZoom>
          </oa:Extension>
        </extensions>
      </trkpt>
      <trkpt lat="46.594555" lon="11.729739">
        <ele>2284.5</ele>
      </trkpt>
      <trkpt lat="46.594617" lon="11.72969">
        <ele>2285.2</ele>
      </trkpt>
      <trkpt lat="46.594674" lon="11.729686">
        <ele>2286.5</ele>
      </trkpt>
      <trkpt lat="46.59477" lon="11.729648">
        <ele>2289.2</ele>
      </trkpt>
      <trkpt lat="46.595149" lon="11.729412">
        <ele>2295.3</ele>
      </trkpt>
      <trkpt lat="46.595204" lon="11.729421">
        <ele>2296.8</ele>
      </trkpt>
      <trkpt lat="46.595315" lon="11.729565">
        <ele>2298.9</ele>
      </trkpt>
      <trkpt lat="46.59542" lon="11.729638">
        <ele>2302.0</ele>
      </trkpt>
      <trkpt lat="46.595433" lon="11.729603">
        <ele>2302.9</ele>
      </trkpt>
      <trkpt lat="46.595428" lon="11.729474">
        <ele>2304.5</ele>
      </trkpt>
      <trkpt lat="46.595636" lon="11.72957">
        <ele>2310.4</ele>
      </trkpt>
      <trkpt lat="46.595793" lon="11.729475">
        <ele>2316.1</ele>
      </trkpt>
      <trkpt lat="46.595929" lon="11.729507">
        <ele>2320.5</ele>
      </trkpt>
      <trkpt lat="46.595987" lon="11.729496">
        <ele>2322.2</ele>
      </trkpt>
      <trkpt lat="46.596108" lon="11.729518">
        <ele>2326.7</ele>
      </trkpt>
      <trkpt lat="46.596353" lon="11.729494">
        <ele>2334.6</ele>
      </trkpt>
      <trkpt lat="46.59648" lon="11.729386">
        <ele>2339.0</ele>
      </trkpt>
      <trkpt lat="46.596576" lon="11.729485">
        <ele>2343.0</ele>
      </trkpt>
      <trkpt lat="46.596748" lon="11.729516">
        <ele>2348.6</ele>
      </trkpt>
      <trkpt lat="46.596823" lon="11.729488">
        <ele>2351.7</ele>
      </trkpt>
      <trkpt lat="46.596929" lon="11.72955">
        <ele>2355.1</ele>
      </trkpt>
      <trkpt lat="46.596993" lon="11.729439">
        <ele>2358.7</ele>
      </trkpt>
      <trkpt lat="46.597007" lon="11.729386">
        <ele>2359.5</ele>
      </trkpt>
      <trkpt lat="46.59702" lon="11.729282">
        <ele>2360.9</ele>
      </trkpt>
      <trkpt lat="46.597028" lon="11.729211">
        <ele>2362.3</ele>
      </trkpt>
      <trkpt lat="46.597055" lon="11.729093">
        <ele>2364.5</ele>
      </trkpt>
      <trkpt lat="46.597062" lon="11.729076">
        <ele>2365.0</ele>
      </trkpt>
      <trkpt lat="46.597072" lon="11.729077">
        <ele>2365.4</ele>
      </trkpt>
      <trkpt lat="46.597096" lon="11.729095">
        <ele>2366.3</ele>
      </trkpt>
      <trkpt lat="46.597141" lon="11.729108">
        <ele>2367.6</ele>
      </trkpt>
      <trkpt lat="46.59723" lon="11.729286">
        <ele>2370.2</ele>
      </trkpt>
      <trkpt lat="46.597262" lon="11.72934">
        <ele>2371.3</ele>
      </trkpt>
      <trkpt lat="46.597305" lon="11.72938">
        <ele>2372.6</ele>
      </trkpt>
      <trkpt lat="46.597346" lon="11.729413">
        <ele>2373.7</ele>
      </trkpt>
      <trkpt lat="46.597399" lon="11.729444">
        <ele>2375.0</ele>
      </trkpt>
      <trkpt lat="46.597497" lon="11.72945">
        <ele>2376.9</ele>
      </trkpt>
      <trkpt lat="46.597708" lon="11.729461">
        <ele>2379.1</ele>
      </trkpt>
      <trkpt lat="46.597822" lon="11.72945">
        <ele>2381.3</ele>
      </trkpt>
      <trkpt lat="46.597866" lon="11.729424">
        <ele>2382.7</ele>
      </trkpt>
      <trkpt lat="46.597899" lon="11.729335">
        <ele>2384.4</ele>
      </trkpt>
      <trkpt lat="46.597903" lon="11.72918">
        <ele>2387.3</ele>
      </trkpt>
      <trkpt lat="46.597887" lon="11.728699">
        <ele>2393.8</ele>
      </trkpt>
      <trkpt lat="46.59783" lon="11.72831">
        <ele>2399.6</ele>
      </trkpt>
      <trkpt lat="46.597761" lon="11.727995">
        <ele>2405.3</ele>
      </trkpt>
      <trkpt lat="46.597714" lon="11.727778">
        <ele>2408.1</ele>
      </trkpt>
      <trkpt lat="46.597666" lon="11.727597">
        <ele>2410.0</ele>
      </trkpt>
      <trkpt lat="46.597637" lon="11.727519">
        <ele>2410.8</ele>
      </trkpt>
      <trkpt lat="46.597583" lon="11.727393">
        <ele>2412.5</ele>
      </trkpt>
      <trkpt lat="46.597569" lon="11.727318">
        <ele>2413.0</ele>
      </trkpt>
      <trkpt lat="46.597556" lon="11.727201">
        <ele>2412.3</ele>
        <name>Sofie-Hütte - Baita Sofie</name>
        <extensions>
          <oa:locType>routingNode</oa:locType>
          <oa:Extension>
            <oa:mapZoom>19</oa:mapZoom>
          </oa:Extension>
        </extensions>
      </trkpt>
      <trkpt lat="46.597553" lon="11.727172">
        <ele>2412.2</ele>
      </trkpt>
      <trkpt lat="46.597566" lon="11.727035">
        <ele>2412.1</ele>
      </trkpt>
      <trkpt lat="46.597591" lon="11.726846">
        <ele>2412.6</ele>
      </trkpt>
      <trkpt lat="46.597654" lon="11.72663">
        <ele>2415.6</ele>
      </trkpt>
      <trkpt lat="46.59767" lon="11.726588">
        <ele>2416.2</ele>
      </trkpt>
      <trkpt lat="46.597682" lon="11.726568">
        <ele>2416.2</ele>
      </trkpt>
      <trkpt lat="46.597717" lon="11.726534">
        <ele>2417.0</ele>
      </trkpt>
      <trkpt lat="46.597731" lon="11.726512">
        <ele>2417.4</ele>
      </trkpt>
      <trkpt lat="46.597741" lon="11.726486">
        <ele>2417.7</ele>
      </trkpt>
      <trkpt lat="46.597745" lon="11.726461">
        <ele>2418.0</ele>
      </trkpt>
      <trkpt lat="46.597741" lon="11.726431">
        <ele>2418.4</ele>
      </trkpt>
      <trkpt lat="46.597728" lon="11.726373">
        <ele>2419.6</ele>
      </trkpt>
      <trkpt lat="46.597726" lon="11.726354">
        <ele>2419.8</ele>
      </trkpt>
      <trkpt lat="46.597729" lon="11.726338">
        <ele>2420.0</ele>
      </trkpt>
      <trkpt lat="46.597737" lon="11.726326">
        <ele>2420.2</ele>
      </trkpt>
      <trkpt lat="46.597749" lon="11.726318">
        <ele>2420.6</ele>
      </trkpt>
      <trkpt lat="46.597781" lon="11.726305">
        <ele>2421.6</ele>
      </trkpt>
      <trkpt lat="46.597843" lon="11.726289">
        <ele>2423.3</ele>
      </trkpt>
      <trkpt lat="46.598006" lon="11.726263">
        <ele>2427.6</ele>
      </trkpt>
      <trkpt lat="46.598068" lon="11.726243">
        <ele>2429.4</ele>
      </trkpt>
      <trkpt lat="46.598088" lon="11.726225">
        <ele>2430.1</ele>
      </trkpt>
      <trkpt lat="46.598095" lon="11.726205">
        <ele>2430.6</ele>
      </trkpt>
      <trkpt lat="46.598096" lon="11.726193">
        <ele>2430.9</ele>
      </trkpt>
      <trkpt lat="46.598095" lon="11.726182">
        <ele>2431.3</ele>
      </trkpt>
      <trkpt lat="46.598082" lon="11.726162">
        <ele>2431.7</ele>
      </trkpt>
      <trkpt lat="46.598072" lon="11.726132">
        <ele>2432.1</ele>
      </trkpt>
      <trkpt lat="46.598066" lon="11.726101">
        <ele>2432.6</ele>
      </trkpt>
      <trkpt lat="46.598047" lon="11.72592">
        <ele>2435.2</ele>
      </trkpt>
      <trkpt lat="46.598048" lon="11.725859">
        <ele>2435.9</ele>
      </trkpt>
      <trkpt lat="46.598063" lon="11.72577">
        <ele>2437.2</ele>
      </trkpt>
      <trkpt lat="46.598096" lon="11.72566">
        <ele>2439.1</ele>
      </trkpt>
      <trkpt lat="46.598132" lon="11.725551">
        <ele>2441.2</ele>
      </trkpt>
      <trkpt lat="46.598136" lon="11.725501">
        <ele>2442.2</ele>
      </trkpt>
      <trkpt lat="46.598135" lon="11.725457">
        <ele>2443.0</ele>
      </trkpt>
      <trkpt lat="46.598128" lon="11.725406">
        <ele>2443.8</ele>
      </trkpt>
      <trkpt lat="46.598114" lon="11.72536">
        <ele>2444.3</ele>
      </trkpt>
      <trkpt lat="46.598099" lon="11.725323">
        <ele>2445.0</ele>
      </trkpt>
      <trkpt lat="46.598083" lon="11.72527">
        <ele>2445.8</ele>
      </trkpt>
      <trkpt lat="46.598074" lon="11.725221">
        <ele>2446.7</ele>
      </trkpt>
      <trkpt lat="46.598068" lon="11.725135">
        <ele>2448.6</ele>
      </trkpt>
      <trkpt lat="46.598054" lon="11.725072">
        <ele>2449.5</ele>
      </trkpt>
      <trkpt lat="46.598028" lon="11.725012">
        <ele>2450.3</ele>
      </trkpt>
      <trkpt lat="46.597958" lon="11.724882">
        <ele>2452.2</ele>
      </trkpt>
      <trkpt lat="46.597928" lon="11.724778">
        <ele>2453.8</ele>
      </trkpt>
      <trkpt lat="46.597791" lon="11.724455">
        <ele>2455.3</ele>
      </trkpt>
      <trkpt lat="46.597838" lon="11.724423">
        <ele>2458.8</ele>
      </trkpt>
      <trkpt lat="46.597883" lon="11.724388">
        <ele>2462.9</ele>
        <name>Santa Cristina Gherdëina - St. Christina in Gröden - Santa Cristina Valgardena, Salten-Schlern - Salto-Sciliar</name>
        <extensions>
          <oa:locType>routingNode</oa:locType>
          <oa:Extension>
            <oa:mapZoom>19</oa:mapZoom>
          </oa:Extension>
        </extensions>
      </trkpt>
    </trkseg>
  </trk>
</gpx>