<?xml version="1.0" encoding="UTF-8" standalone="yes"?>
<gpx version="1.1" creator="outdooractive - http://www.outdooractive.com" xmlns="http://www.topografix.com/GPX/1/1" xmlns:oa="http://www.outdooractive.com/GPX/Extensions/1" xmlns:xsi="http://www.w3.org/2001/XMLSchema-instance" xsi:schemaLocation="http://www.topografix.com/GPX/1/1 http://www.topografix.com/GPX/1/1/gpx.xsd http://www.outdooractive.com/GPX/Extensions/1 https://www.outdooractive.com/schema/gpx_extensions.xsd">
  <metadata>
    <name>6day hard</name>
    <author>
      <name>hwang leo - Community</name>
    </author>
    <link href="https://www.outdooractive.com/r/351858328"/>
    <time>2026-09-04T05:40:46.886Z</time>
    <extensions>
      <oa:oaCategory>hikingTourTrail</oa:oaCategory>
    </extensions>
  </metadata>
  <trk>
    <name>6day hard</name>
    <type>hikingTourTrail</type>
    <trkseg>
      <trkpt lat="46.518674" lon="12.038592">
        <ele>1878.91595</ele>
        <name>Baita Bai de Dònes</name>
        <extensions>
          <oa:Extension>
            <oa:mapZoom>16</oa:mapZoom>
          </oa:Extension>
        </extensions>
      </trkpt>
      <trkpt lat="46.507974" lon="12.046964">
        <ele>2254.6</ele>
        <name>Rifugio Scoiattoli</name>
        <extensions>
          <oa:Extension>
            <oa:mapZoom>18</oa:mapZoom>
          </oa:Extension>
        </extensions>
      </trkpt>
      <trkpt lat="46.508012" lon="12.047054">
        <ele>2254.5</ele>
      </trkpt>
      <trkpt lat="46.508123" lon="12.047054">
        <ele>2255.6</ele>
      </trkpt>
      <trkpt lat="46.508238" lon="12.046924">
        <ele>2254.6</ele>
      </trkpt>
      <trkpt lat="46.508233" lon="12.046828">
        <ele>2255.0</ele>
      </trkpt>
      <trkpt lat="46.508149" lon="12.046604">
        <ele>2255.7</ele>
      </trkpt>
      <trkpt lat="46.508069" lon="12.046571">
        <ele>2256.1</ele>
      </trkpt>
      <trkpt lat="46.507904" lon="12.046562">
        <ele>2256.8</ele>
      </trkpt>
      <trkpt lat="46.507825" lon="12.046571">
        <ele>2257.1</ele>
      </trkpt>
      <trkpt lat="46.507624" lon="12.046494">
        <ele>2257.2</ele>
      </trkpt>
      <trkpt lat="46.507523" lon="12.046501">
        <ele>2258.0</ele>
      </trkpt>
      <trkpt lat="46.507366" lon="12.046506">
        <ele>2260.0</ele>
      </trkpt>
      <trkpt lat="46.507121" lon="12.046383">
        <ele>2262.5</ele>
      </trkpt>
      <trkpt lat="46.506929" lon="12.046171">
        <ele>2263.1</ele>
      </trkpt>
      <trkpt lat="46.506677" lon="12.045887">
        <ele>2264.9</ele>
      </trkpt>
      <trkpt lat="46.506522" lon="12.045704">
        <ele>2263.8</ele>
      </trkpt>
      <trkpt lat="46.506442" lon="12.045562">
        <ele>2262.1</ele>
      </trkpt>
      <trkpt lat="46.506256" lon="12.045294">
        <ele>2265.0</ele>
      </trkpt>
      <trkpt lat="46.506181" lon="12.045175">
        <ele>2267.2</ele>
      </trkpt>
      <trkpt lat="46.506083" lon="12.045021">
        <ele>2269.7</ele>
      </trkpt>
      <trkpt lat="46.506123" lon="12.044846">
        <ele>2267.4</ele>
      </trkpt>
      <trkpt lat="46.506159" lon="12.044645">
        <ele>2265.9</ele>
      </trkpt>
      <trkpt lat="46.506175" lon="12.044437">
        <ele>2265.3</ele>
      </trkpt>
      <trkpt lat="46.506165" lon="12.044289">
        <ele>2265.3</ele>
      </trkpt>
      <trkpt lat="46.506117" lon="12.044059">
        <ele>2264.9</ele>
      </trkpt>
      <trkpt lat="46.505979" lon="12.043767">
        <ele>2264.3</ele>
      </trkpt>
      <trkpt lat="46.505979" lon="12.043522">
        <ele>2261.7</ele>
      </trkpt>
      <trkpt lat="46.505963" lon="12.043399">
        <ele>2261.0</ele>
      </trkpt>
      <trkpt lat="46.505958" lon="12.043341">
        <ele>2260.6</ele>
      </trkpt>
      <trkpt lat="46.505917" lon="12.043212">
        <ele>2260.8</ele>
      </trkpt>
      <trkpt lat="46.505899" lon="12.043088">
        <ele>2260.9</ele>
      </trkpt>
      <trkpt lat="46.505912" lon="12.042965">
        <ele>2260.4</ele>
      </trkpt>
      <trkpt lat="46.505884" lon="12.042715">
        <ele>2260.9</ele>
      </trkpt>
      <trkpt lat="46.505842" lon="12.042479">
        <ele>2260.6</ele>
      </trkpt>
      <trkpt lat="46.505642" lon="12.042711">
        <ele>2267.7</ele>
      </trkpt>
      <trkpt lat="46.505393" lon="12.042848">
        <ele>2273.8</ele>
      </trkpt>
      <trkpt lat="46.505243" lon="12.042864">
        <ele>2278.6</ele>
      </trkpt>
      <trkpt lat="46.504981" lon="12.042993">
        <ele>2283.5</ele>
      </trkpt>
      <trkpt lat="46.504624" lon="12.04315">
        <ele>2286.6</ele>
      </trkpt>
      <trkpt lat="46.504324" lon="12.043151">
        <ele>2293.0</ele>
      </trkpt>
      <trkpt lat="46.504097" lon="12.043025">
        <ele>2301.7</ele>
      </trkpt>
      <trkpt lat="46.503842" lon="12.042977">
        <ele>2307.5</ele>
      </trkpt>
      <trkpt lat="46.503472" lon="12.042893">
        <ele>2316.0</ele>
      </trkpt>
      <trkpt lat="46.503132" lon="12.042912">
        <ele>2323.7</ele>
      </trkpt>
      <trkpt lat="46.502868" lon="12.042772">
        <ele>2331.7</ele>
      </trkpt>
      <trkpt lat="46.502736" lon="12.042667">
        <ele>2336.5</ele>
      </trkpt>
      <trkpt lat="46.502646" lon="12.042674">
        <ele>2337.5</ele>
      </trkpt>
      <trkpt lat="46.502487" lon="12.042651">
        <ele>2341.0</ele>
      </trkpt>
      <trkpt lat="46.502344" lon="12.042555">
        <ele>2347.0</ele>
      </trkpt>
      <trkpt lat="46.502302" lon="12.042474">
        <ele>2349.7</ele>
      </trkpt>
      <trkpt lat="46.502204" lon="12.042385">
        <ele>2354.3</ele>
      </trkpt>
      <trkpt lat="46.502048" lon="12.042277">
        <ele>2360.7</ele>
      </trkpt>
      <trkpt lat="46.50201" lon="12.042219">
        <ele>2362.6</ele>
      </trkpt>
      <trkpt lat="46.501908" lon="12.04205">
        <ele>2368.8</ele>
      </trkpt>
      <trkpt lat="46.501782" lon="12.041949">
        <ele>2372.8</ele>
      </trkpt>
      <trkpt lat="46.501719" lon="12.041878">
        <ele>2375.8</ele>
      </trkpt>
      <trkpt lat="46.501675" lon="12.041862">
        <ele>2377.3</ele>
      </trkpt>
      <trkpt lat="46.501597" lon="12.041809">
        <ele>2380.6</ele>
      </trkpt>
      <trkpt lat="46.501488" lon="12.041818">
        <ele>2384.5</ele>
      </trkpt>
      <trkpt lat="46.501445" lon="12.041808">
        <ele>2385.9</ele>
      </trkpt>
      <trkpt lat="46.501402" lon="12.041813">
        <ele>2386.6</ele>
      </trkpt>
      <trkpt lat="46.501365" lon="12.041823">
        <ele>2386.8</ele>
      </trkpt>
      <trkpt lat="46.50128" lon="12.041825">
        <ele>2387.6</ele>
      </trkpt>
      <trkpt lat="46.50111" lon="12.041909">
        <ele>2390.3</ele>
      </trkpt>
      <trkpt lat="46.50091" lon="12.041729">
        <ele>2396.4</ele>
      </trkpt>
      <trkpt lat="46.500772" lon="12.041585">
        <ele>2397.8</ele>
      </trkpt>
      <trkpt lat="46.500513" lon="12.041429">
        <ele>2400.0</ele>
      </trkpt>
      <trkpt lat="46.500185" lon="12.041274">
        <ele>2403.9</ele>
      </trkpt>
      <trkpt lat="46.499937" lon="12.041218">
        <ele>2409.7</ele>
      </trkpt>
      <trkpt lat="46.499701" lon="12.041128">
        <ele>2413.0</ele>
      </trkpt>
      <trkpt lat="46.499636" lon="12.041035">
        <ele>2414.1</ele>
      </trkpt>
      <trkpt lat="46.499622" lon="12.040934">
        <ele>2414.8</ele>
      </trkpt>
      <trkpt lat="46.49962" lon="12.040936">
        <ele>2414.9</ele>
        <name>Rifugio Averau, Cortina d&apos;Ampezzo</name>
        <extensions>
          <oa:Extension>
            <oa:mapZoom>18</oa:mapZoom>
          </oa:Extension>
        </extensions>
      </trkpt>
      <trkpt lat="46.499511" lon="12.041135">
        <ele>2417.1</ele>
      </trkpt>
      <trkpt lat="46.499385" lon="12.041296">
        <ele>2418.6</ele>
      </trkpt>
      <trkpt lat="46.499358" lon="12.041365">
        <ele>2419.7</ele>
      </trkpt>
      <trkpt lat="46.499397" lon="12.041559">
        <ele>2423.0</ele>
      </trkpt>
      <trkpt lat="46.499626" lon="12.042047">
        <ele>2426.2</ele>
      </trkpt>
      <trkpt lat="46.499637" lon="12.042139">
        <ele>2428.8</ele>
      </trkpt>
      <trkpt lat="46.499576" lon="12.042178">
        <ele>2432.8</ele>
      </trkpt>
      <trkpt lat="46.499431" lon="12.042219">
        <ele>2439.8</ele>
      </trkpt>
      <trkpt lat="46.499296" lon="12.042173">
        <ele>2442.7</ele>
      </trkpt>
      <trkpt lat="46.499289" lon="12.042319">
        <ele>2447.0</ele>
      </trkpt>
      <trkpt lat="46.49941" lon="12.042416">
        <ele>2444.4</ele>
      </trkpt>
      <trkpt lat="46.499248" lon="12.042698">
        <ele>2449.9</ele>
      </trkpt>
      <trkpt lat="46.499187" lon="12.042792">
        <ele>2450.6</ele>
      </trkpt>
      <trkpt lat="46.49908" lon="12.043071">
        <ele>2450.5</ele>
      </trkpt>
      <trkpt lat="46.498977" lon="12.043196">
        <ele>2451.7</ele>
      </trkpt>
      <trkpt lat="46.498802" lon="12.043503">
        <ele>2455.2</ele>
      </trkpt>
      <trkpt lat="46.49868" lon="12.043638">
        <ele>2456.5</ele>
      </trkpt>
      <trkpt lat="46.498541" lon="12.043669">
        <ele>2459.1</ele>
      </trkpt>
      <trkpt lat="46.498332" lon="12.043669">
        <ele>2463.4</ele>
      </trkpt>
      <trkpt lat="46.498142" lon="12.043674">
        <ele>2471.2</ele>
      </trkpt>
      <trkpt lat="46.497814" lon="12.043745">
        <ele>2496.9</ele>
      </trkpt>
      <trkpt lat="46.497487" lon="12.043816">
        <ele>2507.6</ele>
      </trkpt>
      <trkpt lat="46.497124" lon="12.044035">
        <ele>2513.1</ele>
      </trkpt>
      <trkpt lat="46.497065" lon="12.044194">
        <ele>2513.2</ele>
      </trkpt>
      <trkpt lat="46.496823" lon="12.044542">
        <ele>2516.8</ele>
      </trkpt>
      <trkpt lat="46.496631" lon="12.044669">
        <ele>2526.9</ele>
      </trkpt>
      <trkpt lat="46.496491" lon="12.044742">
        <ele>2537.4</ele>
      </trkpt>
      <trkpt lat="46.496245" lon="12.044785">
        <ele>2551.3</ele>
      </trkpt>
      <trkpt lat="46.496047" lon="12.044956">
        <ele>2558.6</ele>
      </trkpt>
      <trkpt lat="46.495891" lon="12.04523">
        <ele>2561.1</ele>
      </trkpt>
      <trkpt lat="46.49578" lon="12.045386">
        <ele>2562.8</ele>
      </trkpt>
      <trkpt lat="46.495697" lon="12.045502">
        <ele>2565.0</ele>
      </trkpt>
      <trkpt lat="46.495591" lon="12.045566">
        <ele>2568.6</ele>
      </trkpt>
      <trkpt lat="46.495398" lon="12.045515">
        <ele>2571.3</ele>
      </trkpt>
      <trkpt lat="46.495315" lon="12.045516">
        <ele>2572.4</ele>
      </trkpt>
      <trkpt lat="46.495271" lon="12.045541">
        <ele>2572.5</ele>
        <name>Nuvolau, Cortina d&apos;Ampezzo</name>
        <extensions>
          <oa:Extension>
            <oa:mapZoom>16</oa:mapZoom>
          </oa:Extension>
        </extensions>
      </trkpt>
    </trkseg>
  </trk>
</gpx>